<?xml version='1.0' encoding='utf-8'?>
<gpx xmlns="http://www.topografix.com/GPX/1/1" version="1.1" creator="Sätila Splits – owner-approved reconstructed normalized display route"><metadata /><trk><name>trail43-2023-2025-normalized</name><trkseg><trkpt lat="57.536198" lon="12.429512"><ele>19.2</ele></trkpt><trkpt lat="57.536325" lon="12.428518"><ele>19.2</ele></trkpt><trkpt lat="57.536320" lon="12.427993"><ele>23.0</ele></trkpt><trkpt lat="57.536467" lon="12.426830"><ele>24.0</ele></trkpt><trkpt lat="57.536523" lon="12.424427"><ele>20.2</ele></trkpt><trkpt lat="57.536428" lon="12.424190"><ele>20.2</ele></trkpt><trkpt lat="57.536038" lon="12.423820"><ele>13.4</ele></trkpt><trkpt lat="57.535807" lon="12.422713"><ele>14.6</ele></trkpt><trkpt lat="57.535685" lon="12.421007"><ele>25.4</ele></trkpt><trkpt lat="57.535935" lon="12.420142"><ele>25.4</ele></trkpt><trkpt lat="57.536043" lon="12.419933"><ele>25.8</ele></trkpt><trkpt lat="57.536185" lon="12.419825"><ele>25.6</ele></trkpt><trkpt lat="57.536313" lon="12.420067"><ele>21.6</ele></trkpt><trkpt lat="57.536415" lon="12.421217"><ele>16.8</ele></trkpt><trkpt lat="57.536683" lon="12.422227"><ele>26.6</ele></trkpt><trkpt lat="57.536652" lon="12.422958"><ele>21.8</ele></trkpt><trkpt lat="57.536805" lon="12.423642"><ele>21.8</ele></trkpt><trkpt lat="57.536953" lon="12.425140"><ele>18.4</ele></trkpt><trkpt lat="57.536877" lon="12.425718"><ele>27.2</ele></trkpt><trkpt lat="57.536940" lon="12.426210"><ele>18.4</ele></trkpt><trkpt lat="57.537132" lon="12.426460"><ele>27.6</ele></trkpt><trkpt lat="57.537267" lon="12.426752"><ele>21.6</ele></trkpt><trkpt lat="57.537400" lon="12.427287"><ele>28.4</ele></trkpt><trkpt lat="57.537120" lon="12.428300"><ele>19.4</ele></trkpt><trkpt lat="57.537062" lon="12.429590"><ele>21.4</ele></trkpt><trkpt lat="57.536908" lon="12.429760"><ele>21.0</ele></trkpt><trkpt lat="57.536773" lon="12.429755"><ele>20.8</ele></trkpt><trkpt lat="57.536523" lon="12.429535"><ele>28.8</ele></trkpt><trkpt lat="57.536402" lon="12.429307"><ele>28.8</ele></trkpt><trkpt lat="57.536287" lon="12.429332"><ele>28.6</ele></trkpt><trkpt lat="57.536242" lon="12.429840"><ele>28.8</ele></trkpt><trkpt lat="57.536070" lon="12.430802"><ele>28.6</ele></trkpt><trkpt lat="57.535788" lon="12.431612"><ele>19.8</ele></trkpt><trkpt lat="57.535538" lon="12.431890"><ele>19.8</ele></trkpt><trkpt lat="57.535052" lon="12.433558"><ele>19.2</ele></trkpt><trkpt lat="57.535027" lon="12.434427"><ele>26.4</ele></trkpt><trkpt lat="57.534835" lon="12.435442"><ele>24.2</ele></trkpt><trkpt lat="57.534648" lon="12.435713"><ele>19.8</ele></trkpt><trkpt lat="57.534603" lon="12.436135"><ele>18.6</ele></trkpt><trkpt lat="57.534272" lon="12.436750"><ele>19.4</ele></trkpt><trkpt lat="57.533587" lon="12.438565"><ele>18.4</ele></trkpt><trkpt lat="57.533222" lon="12.439148"><ele>17.2</ele></trkpt><trkpt lat="57.533197" lon="12.439340"><ele>17.0</ele></trkpt><trkpt lat="57.532640" lon="12.439640"><ele>16.8</ele></trkpt><trkpt lat="57.532600" lon="12.439762"><ele>16.4</ele></trkpt><trkpt lat="57.532453" lon="12.439727"><ele>15.6</ele></trkpt><trkpt lat="57.532217" lon="12.439412"><ele>16.4</ele></trkpt><trkpt lat="57.531827" lon="12.439490"><ele>22.2</ele></trkpt><trkpt lat="57.531423" lon="12.438533"><ele>20.0</ele></trkpt><trkpt lat="57.531090" lon="12.438203"><ele>16.4</ele></trkpt><trkpt lat="57.530950" lon="12.437858"><ele>19.2</ele></trkpt><trkpt lat="57.530725" lon="12.437598"><ele>15.8</ele></trkpt><trkpt lat="57.530547" lon="12.437265"><ele>15.4</ele></trkpt><trkpt lat="57.530080" lon="12.436902"><ele>13.6</ele></trkpt><trkpt lat="57.529920" lon="12.436882"><ele>17.2</ele></trkpt><trkpt lat="57.529677" lon="12.437272"><ele>14.4</ele></trkpt><trkpt lat="57.529240" lon="12.437195"><ele>13.6</ele></trkpt><trkpt lat="57.528825" lon="12.437292"><ele>13.0</ele></trkpt><trkpt lat="57.528005" lon="12.436883"><ele>11.4</ele></trkpt><trkpt lat="57.527827" lon="12.436505"><ele>11.2</ele></trkpt><trkpt lat="57.527270" lon="12.436560"><ele>10.4</ele></trkpt><trkpt lat="57.526968" lon="12.436452"><ele>9.4</ele></trkpt><trkpt lat="57.526797" lon="12.436605"><ele>10.2</ele></trkpt><trkpt lat="57.526457" lon="12.436510"><ele>15.4</ele></trkpt><trkpt lat="57.526387" lon="12.436262"><ele>14.6</ele></trkpt><trkpt lat="57.526252" lon="12.436103"><ele>7.0</ele></trkpt><trkpt lat="57.525413" lon="12.435652"><ele>9.8</ele></trkpt><trkpt lat="57.525087" lon="12.435022"><ele>14.4</ele></trkpt><trkpt lat="57.524953" lon="12.434938"><ele>17.8</ele></trkpt><trkpt lat="57.524620" lon="12.435185"><ele>15.4</ele></trkpt><trkpt lat="57.524408" lon="12.435500"><ele>6.2</ele></trkpt><trkpt lat="57.523653" lon="12.436353"><ele>8.6</ele></trkpt><trkpt lat="57.523392" lon="12.436515"><ele>8.6</ele></trkpt><trkpt lat="57.523187" lon="12.436815"><ele>7.8</ele></trkpt><trkpt lat="57.523007" lon="12.436848"><ele>7.0</ele></trkpt><trkpt lat="57.522822" lon="12.437380"><ele>8.8</ele></trkpt><trkpt lat="57.523083" lon="12.437408"><ele>12.2</ele></trkpt><trkpt lat="57.523243" lon="12.437633"><ele>21.4</ele></trkpt><trkpt lat="57.523667" lon="12.438825"><ele>19.0</ele></trkpt><trkpt lat="57.523833" lon="12.439048"><ele>19.2</ele></trkpt><trkpt lat="57.524005" lon="12.439078"><ele>17.4</ele></trkpt><trkpt lat="57.524057" lon="12.439200"><ele>16.4</ele></trkpt><trkpt lat="57.523948" lon="12.439302"><ele>10.2</ele></trkpt><trkpt lat="57.523935" lon="12.439668"><ele>6.0</ele></trkpt><trkpt lat="57.523718" lon="12.440665"><ele>5.4</ele></trkpt><trkpt lat="57.523320" lon="12.441317"><ele>11.2</ele></trkpt><trkpt lat="57.523103" lon="12.441912"><ele>3.6</ele></trkpt><trkpt lat="57.522348" lon="12.442405"><ele>3.8</ele></trkpt><trkpt lat="57.521542" lon="12.442815"><ele>10.8</ele></trkpt><trkpt lat="57.520697" lon="12.442707"><ele>2.8</ele></trkpt><trkpt lat="57.519890" lon="12.442773"><ele>-0.6</ele></trkpt><trkpt lat="57.518912" lon="12.442417"><ele>7.2</ele></trkpt><trkpt lat="57.517907" lon="12.441168"><ele>6.6</ele></trkpt><trkpt lat="57.517350" lon="12.440842"><ele>5.4</ele></trkpt><trkpt lat="57.516767" lon="12.440832"><ele>11.8</ele></trkpt><trkpt lat="57.515973" lon="12.440243"><ele>6.6</ele></trkpt><trkpt lat="57.515027" lon="12.439685"><ele>5.8</ele></trkpt><trkpt lat="57.514905" lon="12.439678"><ele>-0.8</ele></trkpt><trkpt lat="57.514763" lon="12.439907"><ele>7.0</ele></trkpt><trkpt lat="57.514840" lon="12.440820"><ele>23.0</ele></trkpt><trkpt lat="57.514520" lon="12.440480"><ele>10.4</ele></trkpt><trkpt lat="57.513222" lon="12.440020"><ele>11.2</ele></trkpt><trkpt lat="57.512908" lon="12.439772"><ele>11.0</ele></trkpt><trkpt lat="57.512678" lon="12.439492"><ele>9.8</ele></trkpt><trkpt lat="57.512523" lon="12.439120"><ele>8.6</ele></trkpt><trkpt lat="57.512165" lon="12.437610"><ele>6.0</ele></trkpt><trkpt lat="57.512025" lon="12.436333"><ele>6.4</ele></trkpt><trkpt lat="57.511570" lon="12.434358"><ele>6.4</ele></trkpt><trkpt lat="57.511392" lon="12.433062"><ele>15.6</ele></trkpt><trkpt lat="57.511288" lon="12.432953"><ele>16.6</ele></trkpt><trkpt lat="57.511263" lon="12.432515"><ele>18.8</ele></trkpt><trkpt lat="57.511200" lon="12.432465"><ele>20.0</ele></trkpt><trkpt lat="57.510950" lon="12.431605"><ele>29.8</ele></trkpt><trkpt lat="57.510143" lon="12.430167"><ele>28.8</ele></trkpt><trkpt lat="57.510085" lon="12.430155"><ele>28.8</ele></trkpt><trkpt lat="57.509983" lon="12.430352"><ele>32.2</ele></trkpt><trkpt lat="57.509830" lon="12.430350"><ele>35.0</ele></trkpt><trkpt lat="57.509535" lon="12.430093"><ele>43.8</ele></trkpt><trkpt lat="57.509247" lon="12.430012"><ele>33.6</ele></trkpt><trkpt lat="57.508857" lon="12.429580"><ele>48.2</ele></trkpt><trkpt lat="57.508383" lon="12.428620"><ele>51.4</ele></trkpt><trkpt lat="57.507698" lon="12.427828"><ele>45.0</ele></trkpt><trkpt lat="57.507692" lon="12.427358"><ele>56.6</ele></trkpt><trkpt lat="57.507622" lon="12.427112"><ele>57.4</ele></trkpt><trkpt lat="57.507257" lon="12.426080"><ele>56.2</ele></trkpt><trkpt lat="57.506797" lon="12.425097"><ele>53.6</ele></trkpt><trkpt lat="57.506450" lon="12.424968"><ele>56.8</ele></trkpt><trkpt lat="57.505490" lon="12.424128"><ele>63.6</ele></trkpt><trkpt lat="57.505202" lon="12.423668"><ele>63.4</ele></trkpt><trkpt lat="57.505292" lon="12.422545"><ele>58.6</ele></trkpt><trkpt lat="57.505113" lon="12.421718"><ele>44.0</ele></trkpt><trkpt lat="57.505075" lon="12.420992"><ele>41.8</ele></trkpt><trkpt lat="57.504940" lon="12.420560"><ele>52.8</ele></trkpt><trkpt lat="57.504690" lon="12.420325"><ele>40.4</ele></trkpt><trkpt lat="57.504600" lon="12.419658"><ele>49.4</ele></trkpt><trkpt lat="57.504325" lon="12.419347"><ele>47.0</ele></trkpt><trkpt lat="57.504345" lon="12.419165"><ele>46.4</ele></trkpt><trkpt lat="57.504690" lon="12.418455"><ele>38.0</ele></trkpt><trkpt lat="57.504678" lon="12.418292"><ele>35.6</ele></trkpt><trkpt lat="57.504780" lon="12.417973"><ele>31.6</ele></trkpt><trkpt lat="57.505037" lon="12.417625"><ele>23.0</ele></trkpt><trkpt lat="57.505030" lon="12.417493"><ele>21.0</ele></trkpt><trkpt lat="57.504255" lon="12.416628"><ele>26.2</ele></trkpt><trkpt lat="57.504032" lon="12.416438"><ele>26.2</ele></trkpt><trkpt lat="57.503768" lon="12.416350"><ele>29.4</ele></trkpt><trkpt lat="57.503308" lon="12.415760"><ele>31.6</ele></trkpt><trkpt lat="57.502335" lon="12.415213"><ele>31.4</ele></trkpt><trkpt lat="57.502028" lon="12.414840"><ele>29.8</ele></trkpt><trkpt lat="57.501772" lon="12.414735"><ele>30.2</ele></trkpt><trkpt lat="57.501497" lon="12.414473"><ele>30.6</ele></trkpt><trkpt lat="57.501048" lon="12.413755"><ele>19.4</ele></trkpt><trkpt lat="57.500767" lon="12.413563"><ele>22.0</ele></trkpt><trkpt lat="57.500422" lon="12.412945"><ele>24.0</ele></trkpt><trkpt lat="57.499782" lon="12.412660"><ele>32.2</ele></trkpt><trkpt lat="57.499277" lon="12.412110"><ele>32.6</ele></trkpt><trkpt lat="57.498732" lon="12.411938"><ele>20.2</ele></trkpt><trkpt lat="57.498213" lon="12.412015"><ele>32.2</ele></trkpt><trkpt lat="57.497907" lon="12.411677"><ele>32.8</ele></trkpt><trkpt lat="57.497452" lon="12.411910"><ele>38.6</ele></trkpt><trkpt lat="57.496843" lon="12.411733"><ele>37.2</ele></trkpt><trkpt lat="57.496633" lon="12.412105"><ele>39.8</ele></trkpt><trkpt lat="57.496363" lon="12.412262"><ele>39.6</ele></trkpt><trkpt lat="57.495917" lon="12.412295"><ele>27.4</ele></trkpt><trkpt lat="57.495403" lon="12.412518"><ele>38.4</ele></trkpt><trkpt lat="57.494725" lon="12.412598"><ele>22.2</ele></trkpt><trkpt lat="57.494240" lon="12.412468"><ele>22.2</ele></trkpt><trkpt lat="57.494008" lon="12.412117"><ele>34.4</ele></trkpt><trkpt lat="57.493670" lon="12.411898"><ele>33.8</ele></trkpt><trkpt lat="57.492050" lon="12.411437"><ele>21.0</ele></trkpt><trkpt lat="57.491173" lon="12.411707"><ele>23.6</ele></trkpt><trkpt lat="57.490188" lon="12.411167"><ele>45.6</ele></trkpt><trkpt lat="57.489285" lon="12.411352"><ele>52.2</ele></trkpt><trkpt lat="57.488703" lon="12.412045"><ele>46.6</ele></trkpt><trkpt lat="57.487615" lon="12.411740"><ele>50.0</ele></trkpt><trkpt lat="57.487302" lon="12.411807"><ele>65.2</ele></trkpt><trkpt lat="57.487160" lon="12.412083"><ele>67.0</ele></trkpt><trkpt lat="57.486982" lon="12.412220"><ele>55.8</ele></trkpt><trkpt lat="57.486668" lon="12.412240"><ele>57.0</ele></trkpt><trkpt lat="57.486310" lon="12.412412"><ele>57.4</ele></trkpt><trkpt lat="57.485907" lon="12.412143"><ele>58.0</ele></trkpt><trkpt lat="57.485772" lon="12.411938"><ele>70.8</ele></trkpt><trkpt lat="57.485593" lon="12.411367"><ele>57.4</ele></trkpt><trkpt lat="57.485357" lon="12.411068"><ele>65.0</ele></trkpt><trkpt lat="57.484607" lon="12.410947"><ele>66.2</ele></trkpt><trkpt lat="57.484440" lon="12.411103"><ele>70.8</ele></trkpt><trkpt lat="57.484005" lon="12.410670"><ele>68.0</ele></trkpt><trkpt lat="57.483520" lon="12.410710"><ele>77.4</ele></trkpt><trkpt lat="57.483117" lon="12.410458"><ele>69.0</ele></trkpt><trkpt lat="57.482278" lon="12.410505"><ele>86.8</ele></trkpt><trkpt lat="57.481880" lon="12.410272"><ele>80.4</ele></trkpt><trkpt lat="57.481440" lon="12.410298"><ele>88.0</ele></trkpt><trkpt lat="57.479750" lon="12.411272"><ele>69.0</ele></trkpt><trkpt lat="57.479615" lon="12.411397"><ele>80.0</ele></trkpt><trkpt lat="57.479365" lon="12.411940"><ele>79.6</ele></trkpt><trkpt lat="57.479122" lon="12.412190"><ele>67.8</ele></trkpt><trkpt lat="57.478400" lon="12.412218"><ele>67.8</ele></trkpt><trkpt lat="57.477528" lon="12.412000"><ele>81.0</ele></trkpt><trkpt lat="57.477900" lon="12.412625"><ele>73.2</ele></trkpt><trkpt lat="57.478008" lon="12.412962"><ele>73.4</ele></trkpt><trkpt lat="57.478380" lon="12.413247"><ele>80.8</ele></trkpt><trkpt lat="57.478822" lon="12.414000"><ele>81.2</ele></trkpt><trkpt lat="57.478885" lon="12.414415"><ele>82.2</ele></trkpt><trkpt lat="57.479250" lon="12.415583"><ele>70.0</ele></trkpt><trkpt lat="57.479558" lon="12.415988"><ele>82.8</ele></trkpt><trkpt lat="57.480012" lon="12.416257"><ele>70.4</ele></trkpt><trkpt lat="57.480940" lon="12.417182"><ele>82.8</ele></trkpt><trkpt lat="57.481362" lon="12.417855"><ele>74.2</ele></trkpt><trkpt lat="57.481458" lon="12.418493"><ele>74.4</ele></trkpt><trkpt lat="57.481733" lon="12.418758"><ele>82.4</ele></trkpt><trkpt lat="57.481855" lon="12.419083"><ele>82.6</ele></trkpt><trkpt lat="57.481837" lon="12.419190"><ele>83.2</ele></trkpt><trkpt lat="57.482233" lon="12.419938"><ele>77.0</ele></trkpt><trkpt lat="57.482240" lon="12.420172"><ele>77.4</ele></trkpt><trkpt lat="57.482373" lon="12.420528"><ele>79.0</ele></trkpt><trkpt lat="57.483308" lon="12.421652"><ele>90.4</ele></trkpt><trkpt lat="57.483552" lon="12.421707"><ele>90.8</ele></trkpt><trkpt lat="57.484620" lon="12.423320"><ele>93.0</ele></trkpt><trkpt lat="57.484902" lon="12.423990"><ele>96.2</ele></trkpt><trkpt lat="57.485215" lon="12.424123"><ele>97.8</ele></trkpt><trkpt lat="57.485388" lon="12.424323"><ele>97.6</ele></trkpt><trkpt lat="57.485407" lon="12.424555"><ele>83.4</ele></trkpt><trkpt lat="57.485720" lon="12.425160"><ele>100.4</ele></trkpt><trkpt lat="57.485792" lon="12.425488"><ele>101.0</ele></trkpt><trkpt lat="57.486105" lon="12.425782"><ele>102.4</ele></trkpt><trkpt lat="57.486322" lon="12.426667"><ele>104.2</ele></trkpt><trkpt lat="57.486898" lon="12.427087"><ele>104.6</ele></trkpt><trkpt lat="57.487545" lon="12.427280"><ele>95.8</ele></trkpt><trkpt lat="57.487928" lon="12.427898"><ele>108.6</ele></trkpt><trkpt lat="57.488077" lon="12.427938"><ele>93.8</ele></trkpt><trkpt lat="57.488325" lon="12.427663"><ele>106.6</ele></trkpt><trkpt lat="57.488530" lon="12.427550"><ele>95.2</ele></trkpt><trkpt lat="57.488665" lon="12.427790"><ele>106.8</ele></trkpt><trkpt lat="57.489080" lon="12.427973"><ele>106.8</ele></trkpt><trkpt lat="57.489087" lon="12.428130"><ele>95.2</ele></trkpt><trkpt lat="57.489388" lon="12.428910"><ele>110.0</ele></trkpt><trkpt lat="57.489650" lon="12.429263"><ele>110.4</ele></trkpt><trkpt lat="57.489875" lon="12.429778"><ele>97.2</ele></trkpt><trkpt lat="57.490098" lon="12.430107"><ele>112.0</ele></trkpt><trkpt lat="57.491065" lon="12.430258"><ele>106.6</ele></trkpt><trkpt lat="57.491455" lon="12.430490"><ele>106.0</ele></trkpt><trkpt lat="57.491692" lon="12.429602"><ele>101.8</ele></trkpt><trkpt lat="57.491845" lon="12.429510"><ele>100.0</ele></trkpt><trkpt lat="57.491865" lon="12.429188"><ele>103.2</ele></trkpt><trkpt lat="57.491980" lon="12.428880"><ele>102.2</ele></trkpt><trkpt lat="57.491955" lon="12.428402"><ele>112.8</ele></trkpt><trkpt lat="57.492032" lon="12.428018"><ele>111.4</ele></trkpt><trkpt lat="57.492127" lon="12.427803"><ele>110.8</ele></trkpt><trkpt lat="57.491993" lon="12.427625"><ele>108.8</ele></trkpt><trkpt lat="57.491928" lon="12.427325"><ele>106.2</ele></trkpt><trkpt lat="57.492005" lon="12.426368"><ele>90.2</ele></trkpt><trkpt lat="57.492088" lon="12.426180"><ele>103.8</ele></trkpt><trkpt lat="57.492440" lon="12.425917"><ele>103.4</ele></trkpt><trkpt lat="57.492665" lon="12.425553"><ele>87.2</ele></trkpt><trkpt lat="57.493023" lon="12.425420"><ele>87.6</ele></trkpt><trkpt lat="57.493215" lon="12.425008"><ele>86.4</ele></trkpt><trkpt lat="57.493395" lon="12.424260"><ele>85.6</ele></trkpt><trkpt lat="57.493682" lon="12.424017"><ele>80.8</ele></trkpt><trkpt lat="57.493760" lon="12.424065"><ele>82.4</ele></trkpt><trkpt lat="57.493837" lon="12.424467"><ele>84.0</ele></trkpt><trkpt lat="57.494028" lon="12.424783"><ele>87.0</ele></trkpt><trkpt lat="57.494303" lon="12.426402"><ele>108.4</ele></trkpt><trkpt lat="57.494265" lon="12.427118"><ele>112.6</ele></trkpt><trkpt lat="57.494348" lon="12.427385"><ele>112.2</ele></trkpt><trkpt lat="57.494642" lon="12.427663"><ele>112.2</ele></trkpt><trkpt lat="57.494950" lon="12.428080"><ele>113.6</ele></trkpt><trkpt lat="57.494950" lon="12.428577"><ele>102.2</ele></trkpt><trkpt lat="57.495218" lon="12.429030"><ele>118.8</ele></trkpt><trkpt lat="57.495615" lon="12.428812"><ele>106.6</ele></trkpt><trkpt lat="57.495922" lon="12.428745"><ele>111.6</ele></trkpt><trkpt lat="57.496473" lon="12.429018"><ele>114.2</ele></trkpt><trkpt lat="57.496690" lon="12.429328"><ele>113.8</ele></trkpt><trkpt lat="57.497323" lon="12.429240"><ele>116.0</ele></trkpt><trkpt lat="57.497817" lon="12.429287"><ele>122.0</ele></trkpt><trkpt lat="57.498123" lon="12.429660"><ele>140.6</ele></trkpt><trkpt lat="57.498533" lon="12.429845"><ele>129.4</ele></trkpt><trkpt lat="57.498572" lon="12.430092"><ele>132.4</ele></trkpt><trkpt lat="57.498853" lon="12.430187"><ele>130.4</ele></trkpt><trkpt lat="57.499117" lon="12.430437"><ele>132.4</ele></trkpt><trkpt lat="57.499193" lon="12.431072"><ele>149.6</ele></trkpt><trkpt lat="57.499083" lon="12.431477"><ele>152.0</ele></trkpt><trkpt lat="57.499148" lon="12.431860"><ele>153.2</ele></trkpt><trkpt lat="57.499058" lon="12.432505"><ele>157.2</ele></trkpt><trkpt lat="57.499232" lon="12.432962"><ele>155.4</ele></trkpt><trkpt lat="57.499173" lon="12.433290"><ele>150.0</ele></trkpt><trkpt lat="57.499232" lon="12.433965"><ele>130.2</ele></trkpt><trkpt lat="57.498975" lon="12.435738"><ele>133.4</ele></trkpt><trkpt lat="57.498822" lon="12.436253"><ele>126.2</ele></trkpt><trkpt lat="57.498790" lon="12.436497"><ele>125.6</ele></trkpt><trkpt lat="57.498828" lon="12.436612"><ele>125.2</ele></trkpt><trkpt lat="57.498322" lon="12.438047"><ele>112.6</ele></trkpt><trkpt lat="57.498355" lon="12.438447"><ele>129.0</ele></trkpt><trkpt lat="57.498008" lon="12.439400"><ele>117.6</ele></trkpt><trkpt lat="57.497560" lon="12.441278"><ele>122.2</ele></trkpt><trkpt lat="57.497880" lon="12.441227"><ele>124.0</ele></trkpt><trkpt lat="57.498150" lon="12.441497"><ele>113.6</ele></trkpt><trkpt lat="57.498412" lon="12.442040"><ele>131.4</ele></trkpt><trkpt lat="57.498438" lon="12.442257"><ele>114.8</ele></trkpt><trkpt lat="57.498553" lon="12.442462"><ele>130.2</ele></trkpt><trkpt lat="57.498885" lon="12.442963"><ele>112.2</ele></trkpt><trkpt lat="57.499117" lon="12.443148"><ele>130.6</ele></trkpt><trkpt lat="57.499180" lon="12.443540"><ele>130.6</ele></trkpt><trkpt lat="57.499270" lon="12.443743"><ele>130.8</ele></trkpt><trkpt lat="57.499353" lon="12.444352"><ele>120.2</ele></trkpt><trkpt lat="57.499775" lon="12.444588"><ele>134.2</ele></trkpt><trkpt lat="57.499762" lon="12.444380"><ele>136.8</ele></trkpt><trkpt lat="57.499922" lon="12.444218"><ele>140.0</ele></trkpt><trkpt lat="57.500012" lon="12.444003"><ele>140.4</ele></trkpt><trkpt lat="57.500268" lon="12.442930"><ele>143.4</ele></trkpt><trkpt lat="57.500550" lon="12.442707"><ele>131.4</ele></trkpt><trkpt lat="57.500843" lon="12.442942"><ele>150.2</ele></trkpt><trkpt lat="57.501202" lon="12.442920"><ele>152.0</ele></trkpt><trkpt lat="57.502137" lon="12.442198"><ele>153.6</ele></trkpt><trkpt lat="57.502412" lon="12.441337"><ele>136.0</ele></trkpt><trkpt lat="57.503013" lon="12.440960"><ele>148.8</ele></trkpt><trkpt lat="57.503117" lon="12.440950"><ele>148.2</ele></trkpt><trkpt lat="57.503302" lon="12.441085"><ele>148.0</ele></trkpt><trkpt lat="57.503723" lon="12.441770"><ele>131.2</ele></trkpt><trkpt lat="57.504262" lon="12.441748"><ele>131.2</ele></trkpt><trkpt lat="57.504620" lon="12.442127"><ele>145.0</ele></trkpt><trkpt lat="57.505177" lon="12.441583"><ele>125.6</ele></trkpt><trkpt lat="57.505318" lon="12.441655"><ele>138.8</ele></trkpt><trkpt lat="57.505772" lon="12.442980"><ele>125.0</ele></trkpt><trkpt lat="57.506443" lon="12.444498"><ele>116.0</ele></trkpt><trkpt lat="57.506867" lon="12.444818"><ele>131.2</ele></trkpt><trkpt lat="57.506918" lon="12.445393"><ele>116.2</ele></trkpt><trkpt lat="57.507640" lon="12.446132"><ele>110.2</ele></trkpt><trkpt lat="57.507590" lon="12.446588"><ele>125.2</ele></trkpt><trkpt lat="57.507315" lon="12.447000"><ele>112.6</ele></trkpt><trkpt lat="57.507257" lon="12.447642"><ele>125.0</ele></trkpt><trkpt lat="57.505318" lon="12.448813"><ele>126.2</ele></trkpt><trkpt lat="57.505190" lon="12.449658"><ele>111.2</ele></trkpt><trkpt lat="57.504850" lon="12.450638"><ele>112.0</ele></trkpt><trkpt lat="57.504920" lon="12.450948"><ele>126.8</ele></trkpt><trkpt lat="57.505465" lon="12.452037"><ele>114.8</ele></trkpt><trkpt lat="57.505715" lon="12.452120"><ele>115.8</ele></trkpt><trkpt lat="57.506157" lon="12.452020"><ele>126.8</ele></trkpt><trkpt lat="57.506547" lon="12.452322"><ele>127.4</ele></trkpt><trkpt lat="57.506943" lon="12.452388"><ele>118.2</ele></trkpt><trkpt lat="57.507142" lon="12.452738"><ele>113.8</ele></trkpt><trkpt lat="57.507013" lon="12.453320"><ele>114.2</ele></trkpt><trkpt lat="57.507090" lon="12.454195"><ele>115.6</ele></trkpt><trkpt lat="57.507430" lon="12.455083"><ele>120.6</ele></trkpt><trkpt lat="57.507545" lon="12.456660"><ele>115.8</ele></trkpt><trkpt lat="57.507448" lon="12.457357"><ele>99.4</ele></trkpt><trkpt lat="57.507852" lon="12.457777"><ele>105.0</ele></trkpt><trkpt lat="57.508435" lon="12.459420"><ele>96.4</ele></trkpt><trkpt lat="57.508683" lon="12.459775"><ele>100.2</ele></trkpt><trkpt lat="57.509042" lon="12.459792"><ele>106.4</ele></trkpt><trkpt lat="57.509823" lon="12.460402"><ele>92.2</ele></trkpt><trkpt lat="57.510278" lon="12.461050"><ele>94.2</ele></trkpt><trkpt lat="57.510450" lon="12.461698"><ele>90.8</ele></trkpt><trkpt lat="57.511193" lon="12.462485"><ele>107.0</ele></trkpt><trkpt lat="57.511340" lon="12.462748"><ele>106.8</ele></trkpt><trkpt lat="57.511845" lon="12.462822"><ele>102.2</ele></trkpt><trkpt lat="57.512217" lon="12.462690"><ele>86.2</ele></trkpt><trkpt lat="57.512895" lon="12.463092"><ele>86.0</ele></trkpt><trkpt lat="57.513440" lon="12.463140"><ele>96.8</ele></trkpt><trkpt lat="57.513688" lon="12.463465"><ele>97.8</ele></trkpt><trkpt lat="57.513747" lon="12.463760"><ele>84.4</ele></trkpt><trkpt lat="57.514085" lon="12.463842"><ele>96.2</ele></trkpt><trkpt lat="57.514892" lon="12.464680"><ele>97.6</ele></trkpt><trkpt lat="57.514968" lon="12.465122"><ele>89.0</ele></trkpt><trkpt lat="57.515468" lon="12.465787"><ele>98.2</ele></trkpt><trkpt lat="57.515660" lon="12.466355"><ele>99.2</ele></trkpt><trkpt lat="57.516275" lon="12.466843"><ele>91.0</ele></trkpt><trkpt lat="57.516633" lon="12.467640"><ele>103.0</ele></trkpt><trkpt lat="57.517445" lon="12.468398"><ele>98.6</ele></trkpt><trkpt lat="57.517688" lon="12.468488"><ele>97.6</ele></trkpt><trkpt lat="57.517963" lon="12.468375"><ele>95.6</ele></trkpt><trkpt lat="57.518162" lon="12.468140"><ele>93.2</ele></trkpt><trkpt lat="57.518245" lon="12.467715"><ele>88.6</ele></trkpt><trkpt lat="57.518482" lon="12.467862"><ele>85.8</ele></trkpt><trkpt lat="57.518610" lon="12.467848"><ele>73.0</ele></trkpt><trkpt lat="57.519167" lon="12.467050"><ele>87.4</ele></trkpt><trkpt lat="57.519403" lon="12.466587"><ele>77.6</ele></trkpt><trkpt lat="57.519385" lon="12.466223"><ele>79.6</ele></trkpt><trkpt lat="57.518738" lon="12.464407"><ele>88.0</ele></trkpt><trkpt lat="57.518668" lon="12.463602"><ele>103.2</ele></trkpt><trkpt lat="57.518790" lon="12.463105"><ele>91.4</ele></trkpt><trkpt lat="57.519232" lon="12.462453"><ele>95.6</ele></trkpt><trkpt lat="57.519448" lon="12.461375"><ele>94.0</ele></trkpt><trkpt lat="57.519667" lon="12.461817"><ele>100.0</ele></trkpt><trkpt lat="57.519935" lon="12.462060"><ele>113.6</ele></trkpt><trkpt lat="57.520237" lon="12.463073"><ele>96.4</ele></trkpt><trkpt lat="57.520818" lon="12.463352"><ele>109.0</ele></trkpt><trkpt lat="57.521240" lon="12.463292"><ele>93.6</ele></trkpt><trkpt lat="57.521727" lon="12.463102"><ele>100.4</ele></trkpt><trkpt lat="57.522227" lon="12.463792"><ele>102.6</ele></trkpt><trkpt lat="57.522617" lon="12.463615"><ele>105.2</ele></trkpt><trkpt lat="57.522777" lon="12.463395"><ele>120.6</ele></trkpt><trkpt lat="57.522873" lon="12.463425"><ele>106.6</ele></trkpt><trkpt lat="57.523218" lon="12.463727"><ele>107.8</ele></trkpt><trkpt lat="57.523590" lon="12.464380"><ele>124.6</ele></trkpt><trkpt lat="57.523782" lon="12.464488"><ele>124.2</ele></trkpt><trkpt lat="57.523910" lon="12.464712"><ele>123.4</ele></trkpt><trkpt lat="57.523858" lon="12.464128"><ele>108.8</ele></trkpt><trkpt lat="57.524178" lon="12.463757"><ele>114.4</ele></trkpt><trkpt lat="57.524242" lon="12.462898"><ele>117.2</ele></trkpt><trkpt lat="57.524492" lon="12.462222"><ele>131.4</ele></trkpt><trkpt lat="57.524492" lon="12.461598"><ele>129.6</ele></trkpt><trkpt lat="57.524595" lon="12.461138"><ele>128.2</ele></trkpt><trkpt lat="57.524652" lon="12.460517"><ele>128.8</ele></trkpt><trkpt lat="57.524947" lon="12.459607"><ele>124.4</ele></trkpt><trkpt lat="57.524933" lon="12.459012"><ele>105.6</ele></trkpt><trkpt lat="57.525612" lon="12.458548"><ele>124.4</ele></trkpt><trkpt lat="57.526067" lon="12.458767"><ele>124.2</ele></trkpt><trkpt lat="57.525958" lon="12.459145"><ele>110.0</ele></trkpt><trkpt lat="57.526418" lon="12.459560"><ele>122.2</ele></trkpt><trkpt lat="57.526572" lon="12.460580"><ele>102.4</ele></trkpt><trkpt lat="57.527110" lon="12.461398"><ele>99.4</ele></trkpt><trkpt lat="57.527173" lon="12.462212"><ele>103.4</ele></trkpt><trkpt lat="57.527277" lon="12.462272"><ele>99.8</ele></trkpt><trkpt lat="57.527403" lon="12.462868"><ele>115.4</ele></trkpt><trkpt lat="57.527282" lon="12.463277"><ele>95.0</ele></trkpt><trkpt lat="57.527333" lon="12.463573"><ele>94.0</ele></trkpt><trkpt lat="57.527712" lon="12.463828"><ele>113.4</ele></trkpt><trkpt lat="57.527967" lon="12.464352"><ele>115.6</ele></trkpt><trkpt lat="57.528332" lon="12.466097"><ele>121.8</ele></trkpt><trkpt lat="57.529202" lon="12.468052"><ele>107.4</ele></trkpt><trkpt lat="57.529280" lon="12.469095"><ele>98.8</ele></trkpt><trkpt lat="57.529280" lon="12.469790"><ele>99.2</ele></trkpt><trkpt lat="57.529618" lon="12.471392"><ele>92.0</ele></trkpt><trkpt lat="57.530157" lon="12.472100"><ele>92.0</ele></trkpt><trkpt lat="57.530477" lon="12.472650"><ele>95.6</ele></trkpt><trkpt lat="57.530310" lon="12.473300"><ele>89.2</ele></trkpt><trkpt lat="57.530367" lon="12.473920"><ele>108.0</ele></trkpt><trkpt lat="57.530502" lon="12.474660"><ele>98.8</ele></trkpt><trkpt lat="57.530527" lon="12.475172"><ele>114.0</ele></trkpt><trkpt lat="57.531462" lon="12.476868"><ele>106.8</ele></trkpt><trkpt lat="57.531967" lon="12.478007"><ele>119.6</ele></trkpt><trkpt lat="57.532005" lon="12.478865"><ele>117.4</ele></trkpt><trkpt lat="57.532818" lon="12.481050"><ele>91.8</ele></trkpt><trkpt lat="57.533842" lon="12.482105"><ele>111.8</ele></trkpt><trkpt lat="57.533913" lon="12.482643"><ele>92.0</ele></trkpt><trkpt lat="57.534348" lon="12.483262"><ele>93.8</ele></trkpt><trkpt lat="57.534892" lon="12.483480"><ele>98.4</ele></trkpt><trkpt lat="57.535577" lon="12.483913"><ele>78.6</ele></trkpt><trkpt lat="57.536070" lon="12.484435"><ele>67.8</ele></trkpt><trkpt lat="57.536383" lon="12.484817"><ele>80.0</ele></trkpt><trkpt lat="57.536760" lon="12.486053"><ele>57.6</ele></trkpt><trkpt lat="57.537062" lon="12.486172"><ele>71.0</ele></trkpt><trkpt lat="57.537503" lon="12.486122"><ele>55.2</ele></trkpt><trkpt lat="57.537925" lon="12.485718"><ele>56.0</ele></trkpt><trkpt lat="57.538092" lon="12.485727"><ele>61.6</ele></trkpt><trkpt lat="57.539768" lon="12.484623"><ele>64.0</ele></trkpt><trkpt lat="57.539928" lon="12.484435"><ele>73.2</ele></trkpt><trkpt lat="57.540748" lon="12.484622"><ele>57.4</ele></trkpt><trkpt lat="57.541055" lon="12.484457"><ele>55.4</ele></trkpt><trkpt lat="57.541285" lon="12.484932"><ele>70.4</ele></trkpt><trkpt lat="57.542502" lon="12.484395"><ele>60.8</ele></trkpt><trkpt lat="57.543097" lon="12.483930"><ele>61.6</ele></trkpt><trkpt lat="57.543833" lon="12.483570"><ele>57.4</ele></trkpt><trkpt lat="57.544160" lon="12.483035"><ele>60.8</ele></trkpt><trkpt lat="57.544780" lon="12.481547"><ele>49.8</ele></trkpt><trkpt lat="57.545222" lon="12.481178"><ele>46.4</ele></trkpt><trkpt lat="57.546028" lon="12.479033"><ele>43.6</ele></trkpt><trkpt lat="57.546245" lon="12.478652"><ele>42.8</ele></trkpt><trkpt lat="57.546937" lon="12.478367"><ele>38.0</ele></trkpt><trkpt lat="57.547628" lon="12.477200"><ele>60.4</ele></trkpt><trkpt lat="57.547993" lon="12.477140"><ele>65.2</ele></trkpt><trkpt lat="57.548345" lon="12.476403"><ele>68.4</ele></trkpt><trkpt lat="57.548620" lon="12.475977"><ele>55.4</ele></trkpt><trkpt lat="57.549120" lon="12.475797"><ele>75.4</ele></trkpt><trkpt lat="57.549478" lon="12.475378"><ele>65.2</ele></trkpt><trkpt lat="57.549907" lon="12.475443"><ele>84.4</ele></trkpt><trkpt lat="57.550355" lon="12.475187"><ele>78.0</ele></trkpt><trkpt lat="57.551110" lon="12.474982"><ele>89.8</ele></trkpt><trkpt lat="57.551840" lon="12.474407"><ele>82.6</ele></trkpt><trkpt lat="57.553055" lon="12.473697"><ele>91.8</ele></trkpt><trkpt lat="57.553368" lon="12.473355"><ele>79.2</ele></trkpt><trkpt lat="57.553733" lon="12.473290"><ele>84.4</ele></trkpt><trkpt lat="57.553792" lon="12.473130"><ele>95.0</ele></trkpt><trkpt lat="57.553740" lon="12.472867"><ele>84.6</ele></trkpt><trkpt lat="57.554040" lon="12.472550"><ele>94.0</ele></trkpt><trkpt lat="57.554342" lon="12.472020"><ele>80.6</ele></trkpt><trkpt lat="57.554367" lon="12.470897"><ele>82.0</ele></trkpt><trkpt lat="57.554252" lon="12.469428"><ele>100.6</ele></trkpt><trkpt lat="57.554623" lon="12.467392"><ele>105.0</ele></trkpt><trkpt lat="57.554662" lon="12.466627"><ele>93.0</ele></trkpt><trkpt lat="57.554425" lon="12.465820"><ele>100.2</ele></trkpt><trkpt lat="57.554515" lon="12.464518"><ele>87.6</ele></trkpt><trkpt lat="57.554457" lon="12.464487"><ele>84.8</ele></trkpt><trkpt lat="57.554008" lon="12.462182"><ele>84.4</ele></trkpt><trkpt lat="57.554060" lon="12.462050"><ele>86.6</ele></trkpt><trkpt lat="57.554123" lon="12.461463"><ele>84.2</ele></trkpt><trkpt lat="57.554258" lon="12.461027"><ele>85.4</ele></trkpt><trkpt lat="57.554725" lon="12.460407"><ele>88.4</ele></trkpt><trkpt lat="57.554923" lon="12.459913"><ele>96.8</ele></trkpt><trkpt lat="57.554822" lon="12.459572"><ele>96.2</ele></trkpt><trkpt lat="57.554675" lon="12.459278"><ele>95.6</ele></trkpt><trkpt lat="57.554540" lon="12.459185"><ele>95.4</ele></trkpt><trkpt lat="57.553830" lon="12.459288"><ele>85.8</ele></trkpt><trkpt lat="57.553267" lon="12.458400"><ele>88.8</ele></trkpt><trkpt lat="57.553298" lon="12.458282"><ele>90.8</ele></trkpt><trkpt lat="57.552877" lon="12.458470"><ele>91.0</ele></trkpt><trkpt lat="57.552467" lon="12.457575"><ele>93.2</ele></trkpt><trkpt lat="57.551973" lon="12.456875"><ele>95.2</ele></trkpt><trkpt lat="57.551840" lon="12.456773"><ele>94.2</ele></trkpt><trkpt lat="57.550808" lon="12.456560"><ele>104.2</ele></trkpt><trkpt lat="57.550687" lon="12.456252"><ele>103.4</ele></trkpt><trkpt lat="57.550405" lon="12.455983"><ele>101.8</ele></trkpt><trkpt lat="57.550213" lon="12.455353"><ele>104.6</ele></trkpt><trkpt lat="57.549715" lon="12.454305"><ele>91.4</ele></trkpt><trkpt lat="57.548773" lon="12.453305"><ele>104.2</ele></trkpt><trkpt lat="57.548512" lon="12.452670"><ele>87.8</ele></trkpt><trkpt lat="57.548325" lon="12.452473"><ele>85.4</ele></trkpt><trkpt lat="57.548268" lon="12.452203"><ele>99.4</ele></trkpt><trkpt lat="57.548120" lon="12.451965"><ele>103.2</ele></trkpt><trkpt lat="57.547730" lon="12.451945"><ele>92.0</ele></trkpt><trkpt lat="57.547525" lon="12.452403"><ele>105.8</ele></trkpt><trkpt lat="57.547270" lon="12.452420"><ele>103.6</ele></trkpt><trkpt lat="57.546918" lon="12.452283"><ele>101.4</ele></trkpt><trkpt lat="57.546335" lon="12.452600"><ele>88.8</ele></trkpt><trkpt lat="57.545842" lon="12.452600"><ele>88.2</ele></trkpt><trkpt lat="57.545452" lon="12.452863"><ele>86.6</ele></trkpt><trkpt lat="57.544562" lon="12.452197"><ele>79.2</ele></trkpt><trkpt lat="57.543993" lon="12.452362"><ele>87.2</ele></trkpt><trkpt lat="57.543960" lon="12.452240"><ele>86.8</ele></trkpt><trkpt lat="57.544473" lon="12.450447"><ele>87.2</ele></trkpt><trkpt lat="57.544600" lon="12.449647"><ele>89.2</ele></trkpt><trkpt lat="57.544818" lon="12.449155"><ele>78.4</ele></trkpt><trkpt lat="57.544953" lon="12.449365"><ele>78.0</ele></trkpt><trkpt lat="57.545107" lon="12.449433"><ele>76.0</ele></trkpt><trkpt lat="57.545368" lon="12.449423"><ele>90.6</ele></trkpt><trkpt lat="57.545400" lon="12.449323"><ele>78.0</ele></trkpt><trkpt lat="57.545600" lon="12.449297"><ele>92.6</ele></trkpt><trkpt lat="57.546195" lon="12.448332"><ele>93.6</ele></trkpt><trkpt lat="57.546495" lon="12.447582"><ele>75.6</ele></trkpt><trkpt lat="57.546713" lon="12.446833"><ele>87.2</ele></trkpt><trkpt lat="57.546675" lon="12.446565"><ele>74.4</ele></trkpt><trkpt lat="57.546258" lon="12.445760"><ele>94.6</ele></trkpt><trkpt lat="57.546283" lon="12.445488"><ele>95.6</ele></trkpt><trkpt lat="57.546355" lon="12.445375"><ele>83.0</ele></trkpt><trkpt lat="57.546680" lon="12.445302"><ele>99.2</ele></trkpt><trkpt lat="57.546560" lon="12.444975"><ele>99.8</ele></trkpt><trkpt lat="57.546662" lon="12.444530"><ele>99.8</ele></trkpt><trkpt lat="57.546617" lon="12.444068"><ele>85.6</ele></trkpt><trkpt lat="57.546137" lon="12.442798"><ele>83.2</ele></trkpt><trkpt lat="57.545753" lon="12.442627"><ele>81.2</ele></trkpt><trkpt lat="57.545650" lon="12.442475"><ele>83.0</ele></trkpt><trkpt lat="57.545605" lon="12.442018"><ele>93.6</ele></trkpt><trkpt lat="57.545760" lon="12.441617"><ele>89.6</ele></trkpt><trkpt lat="57.544300" lon="12.439120"><ele>73.0</ele></trkpt><trkpt lat="57.544255" lon="12.438908"><ele>60.2</ele></trkpt><trkpt lat="57.544428" lon="12.438513"><ele>61.6</ele></trkpt><trkpt lat="57.544300" lon="12.437885"><ele>62.0</ele></trkpt><trkpt lat="57.544077" lon="12.437628"><ele>66.8</ele></trkpt><trkpt lat="57.543833" lon="12.437468"><ele>69.0</ele></trkpt><trkpt lat="57.543288" lon="12.437307"><ele>66.0</ele></trkpt><trkpt lat="57.543173" lon="12.437403"><ele>78.0</ele></trkpt><trkpt lat="57.543097" lon="12.437323"><ele>63.6</ele></trkpt><trkpt lat="57.542770" lon="12.435758"><ele>52.8</ele></trkpt><trkpt lat="57.542738" lon="12.433705"><ele>60.8</ele></trkpt><trkpt lat="57.542700" lon="12.433493"><ele>48.2</ele></trkpt><trkpt lat="57.541868" lon="12.433638"><ele>61.0</ele></trkpt><trkpt lat="57.540895" lon="12.434637"><ele>60.4</ele></trkpt><trkpt lat="57.540377" lon="12.434740"><ele>43.0</ele></trkpt><trkpt lat="57.540050" lon="12.434625"><ele>59.6</ele></trkpt><trkpt lat="57.539480" lon="12.435275"><ele>44.0</ele></trkpt><trkpt lat="57.539385" lon="12.434527"><ele>38.2</ele></trkpt><trkpt lat="57.539013" lon="12.434147"><ele>44.8</ele></trkpt><trkpt lat="57.538642" lon="12.434088"><ele>30.6</ele></trkpt><trkpt lat="57.538387" lon="12.433677"><ele>26.8</ele></trkpt><trkpt lat="57.538380" lon="12.433433"><ele>26.6</ele></trkpt><trkpt lat="57.538527" lon="12.433165"><ele>26.4</ele></trkpt><trkpt lat="57.539308" lon="12.432320"><ele>42.8</ele></trkpt><trkpt lat="57.539462" lon="12.432038"><ele>42.6</ele></trkpt><trkpt lat="57.539680" lon="12.431363"><ele>43.0</ele></trkpt><trkpt lat="57.539910" lon="12.430985"><ele>29.0</ele></trkpt><trkpt lat="57.540185" lon="12.429933"><ele>41.6</ele></trkpt><trkpt lat="57.540198" lon="12.429073"><ele>26.8</ele></trkpt><trkpt lat="57.540307" lon="12.428552"><ele>36.6</ele></trkpt><trkpt lat="57.540325" lon="12.428248"><ele>21.2</ele></trkpt><trkpt lat="57.540505" lon="12.427695"><ele>31.6</ele></trkpt><trkpt lat="57.540787" lon="12.427412"><ele>30.8</ele></trkpt><trkpt lat="57.541197" lon="12.427228"><ele>18.6</ele></trkpt><trkpt lat="57.542502" lon="12.427325"><ele>16.2</ele></trkpt><trkpt lat="57.542527" lon="12.425967"><ele>16.4</ele></trkpt><trkpt lat="57.542680" lon="12.425425"><ele>16.6</ele></trkpt><trkpt lat="57.542637" lon="12.423722"><ele>14.2</ele></trkpt><trkpt lat="57.542752" lon="12.423370"><ele>29.0</ele></trkpt><trkpt lat="57.543007" lon="12.422088"><ele>15.4</ele></trkpt><trkpt lat="57.543398" lon="12.420820"><ele>14.0</ele></trkpt><trkpt lat="57.544077" lon="12.419568"><ele>14.4</ele></trkpt><trkpt lat="57.544287" lon="12.417775"><ele>30.4</ele></trkpt><trkpt lat="57.544307" lon="12.417140"><ele>30.6</ele></trkpt><trkpt lat="57.544217" lon="12.416860"><ele>32.2</ele></trkpt><trkpt lat="57.543615" lon="12.416403"><ele>30.0</ele></trkpt><trkpt lat="57.542572" lon="12.416013"><ele>46.0</ele></trkpt><trkpt lat="57.542400" lon="12.415585"><ele>49.2</ele></trkpt><trkpt lat="57.542367" lon="12.415257"><ele>36.8</ele></trkpt><trkpt lat="57.542675" lon="12.414450"><ele>47.0</ele></trkpt><trkpt lat="57.543640" lon="12.414183"><ele>52.4</ele></trkpt><trkpt lat="57.543890" lon="12.413965"><ele>68.0</ele></trkpt><trkpt lat="57.543973" lon="12.413753"><ele>67.8</ele></trkpt><trkpt lat="57.544025" lon="12.413312"><ele>53.4</ele></trkpt><trkpt lat="57.543903" lon="12.412675"><ele>58.6</ele></trkpt><trkpt lat="57.544210" lon="12.411952"><ele>65.6</ele></trkpt><trkpt lat="57.544230" lon="12.411505"><ele>70.8</ele></trkpt><trkpt lat="57.544172" lon="12.411220"><ele>88.2</ele></trkpt><trkpt lat="57.544000" lon="12.411087"><ele>89.2</ele></trkpt><trkpt lat="57.543827" lon="12.410820"><ele>89.0</ele></trkpt><trkpt lat="57.543917" lon="12.409957"><ele>91.2</ele></trkpt><trkpt lat="57.543532" lon="12.409582"><ele>78.6</ele></trkpt><trkpt lat="57.542648" lon="12.409748"><ele>96.8</ele></trkpt><trkpt lat="57.542053" lon="12.409395"><ele>82.2</ele></trkpt><trkpt lat="57.541113" lon="12.409157"><ele>82.6</ele></trkpt><trkpt lat="57.540773" lon="12.408802"><ele>86.0</ele></trkpt><trkpt lat="57.540203" lon="12.408040"><ele>102.4</ele></trkpt><trkpt lat="57.540102" lon="12.407790"><ele>101.6</ele></trkpt><trkpt lat="57.539737" lon="12.407580"><ele>102.6</ele></trkpt><trkpt lat="57.538950" lon="12.407812"><ele>85.0</ele></trkpt><trkpt lat="57.538560" lon="12.407665"><ele>102.4</ele></trkpt><trkpt lat="57.538278" lon="12.407325"><ele>101.2</ele></trkpt><trkpt lat="57.537682" lon="12.407160"><ele>100.4</ele></trkpt><trkpt lat="57.536818" lon="12.406113"><ele>106.0</ele></trkpt><trkpt lat="57.536248" lon="12.405993"><ele>90.6</ele></trkpt><trkpt lat="57.535680" lon="12.405452"><ele>89.4</ele></trkpt><trkpt lat="57.534802" lon="12.404198"><ele>90.0</ele></trkpt><trkpt lat="57.534367" lon="12.403928"><ele>88.8</ele></trkpt><trkpt lat="57.533810" lon="12.403272"><ele>91.8</ele></trkpt><trkpt lat="57.532600" lon="12.402448"><ele>107.2</ele></trkpt><trkpt lat="57.532063" lon="12.401240"><ele>86.4</ele></trkpt><trkpt lat="57.531480" lon="12.400770"><ele>107.2</ele></trkpt><trkpt lat="57.529715" lon="12.401078"><ele>107.6</ele></trkpt><trkpt lat="57.528658" lon="12.400960"><ele>91.2</ele></trkpt><trkpt lat="57.528223" lon="12.401268"><ele>106.6</ele></trkpt><trkpt lat="57.528050" lon="12.401008"><ele>106.6</ele></trkpt><trkpt lat="57.527865" lon="12.400382"><ele>106.4</ele></trkpt><trkpt lat="57.527327" lon="12.399758"><ele>107.4</ele></trkpt><trkpt lat="57.527117" lon="12.399400"><ele>92.2</ele></trkpt><trkpt lat="57.526655" lon="12.400637"><ele>110.4</ele></trkpt><trkpt lat="57.526272" lon="12.401272"><ele>110.8</ele></trkpt><trkpt lat="57.525938" lon="12.401523"><ele>112.2</ele></trkpt><trkpt lat="57.525657" lon="12.401658"><ele>95.6</ele></trkpt><trkpt lat="57.525215" lon="12.401610"><ele>96.0</ele></trkpt><trkpt lat="57.524613" lon="12.402270"><ele>94.6</ele></trkpt><trkpt lat="57.524435" lon="12.402358"><ele>95.2</ele></trkpt><trkpt lat="57.524185" lon="12.402185"><ele>95.2</ele></trkpt><trkpt lat="57.523903" lon="12.402223"><ele>95.0</ele></trkpt><trkpt lat="57.523858" lon="12.402673"><ele>108.4</ele></trkpt><trkpt lat="57.523353" lon="12.402897"><ele>102.6</ele></trkpt><trkpt lat="57.522213" lon="12.402337"><ele>84.0</ele></trkpt><trkpt lat="57.521925" lon="12.401963"><ele>85.4</ele></trkpt><trkpt lat="57.521452" lon="12.401545"><ele>87.6</ele></trkpt><trkpt lat="57.521183" lon="12.401168"><ele>88.8</ele></trkpt><trkpt lat="57.520748" lon="12.400785"><ele>88.6</ele></trkpt><trkpt lat="57.520070" lon="12.399970"><ele>99.8</ele></trkpt><trkpt lat="57.519552" lon="12.399452"><ele>82.0</ele></trkpt><trkpt lat="57.519270" lon="12.399310"><ele>98.6</ele></trkpt><trkpt lat="57.519097" lon="12.399042"><ele>99.0</ele></trkpt><trkpt lat="57.518923" lon="12.399003"><ele>99.8</ele></trkpt><trkpt lat="57.518752" lon="12.398785"><ele>100.0</ele></trkpt><trkpt lat="57.518675" lon="12.398775"><ele>100.2</ele></trkpt><trkpt lat="57.518477" lon="12.398407"><ele>100.8</ele></trkpt><trkpt lat="57.517938" lon="12.397897"><ele>103.2</ele></trkpt><trkpt lat="57.517023" lon="12.396790"><ele>82.6</ele></trkpt><trkpt lat="57.516293" lon="12.396505"><ele>98.4</ele></trkpt><trkpt lat="57.516140" lon="12.396373"><ele>97.6</ele></trkpt><trkpt lat="57.515922" lon="12.395787"><ele>84.0</ele></trkpt><trkpt lat="57.515353" lon="12.394655"><ele>100.0</ele></trkpt><trkpt lat="57.514425" lon="12.392575"><ele>86.2</ele></trkpt><trkpt lat="57.514118" lon="12.391550"><ele>83.0</ele></trkpt><trkpt lat="57.514028" lon="12.390850"><ele>79.4</ele></trkpt><trkpt lat="57.513913" lon="12.390343"><ele>76.6</ele></trkpt><trkpt lat="57.513963" lon="12.389440"><ele>73.8</ele></trkpt><trkpt lat="57.513292" lon="12.387985"><ele>78.8</ele></trkpt><trkpt lat="57.512793" lon="12.387260"><ele>80.0</ele></trkpt><trkpt lat="57.512428" lon="12.386123"><ele>77.6</ele></trkpt><trkpt lat="57.512050" lon="12.385460"><ele>99.6</ele></trkpt><trkpt lat="57.511883" lon="12.385493"><ele>85.8</ele></trkpt><trkpt lat="57.511858" lon="12.385423"><ele>86.6</ele></trkpt><trkpt lat="57.511583" lon="12.385807"><ele>83.2</ele></trkpt><trkpt lat="57.511072" lon="12.386015"><ele>82.6</ele></trkpt><trkpt lat="57.510707" lon="12.387827"><ele>68.0</ele></trkpt><trkpt lat="57.510937" lon="12.387748"><ele>85.2</ele></trkpt><trkpt lat="57.511078" lon="12.388250"><ele>68.8</ele></trkpt><trkpt lat="57.510988" lon="12.388540"><ele>87.0</ele></trkpt><trkpt lat="57.511353" lon="12.390980"><ele>71.2</ele></trkpt><trkpt lat="57.511705" lon="12.391625"><ele>77.0</ele></trkpt><trkpt lat="57.511800" lon="12.392153"><ele>58.6</ele></trkpt><trkpt lat="57.512082" lon="12.392498"><ele>64.6</ele></trkpt><trkpt lat="57.512127" lon="12.392967"><ele>82.8</ele></trkpt><trkpt lat="57.512237" lon="12.393203"><ele>80.6</ele></trkpt><trkpt lat="57.512262" lon="12.393388"><ele>80.2</ele></trkpt><trkpt lat="57.512665" lon="12.394280"><ele>57.4</ele></trkpt><trkpt lat="57.512805" lon="12.395335"><ele>58.8</ele></trkpt><trkpt lat="57.512908" lon="12.395752"><ele>57.6</ele></trkpt><trkpt lat="57.513190" lon="12.395920"><ele>73.8</ele></trkpt><trkpt lat="57.513535" lon="12.396900"><ele>69.6</ele></trkpt><trkpt lat="57.513445" lon="12.397445"><ele>66.8</ele></trkpt><trkpt lat="57.513567" lon="12.397872"><ele>67.6</ele></trkpt><trkpt lat="57.513657" lon="12.398010"><ele>68.6</ele></trkpt><trkpt lat="57.513695" lon="12.397950"><ele>69.0</ele></trkpt><trkpt lat="57.513842" lon="12.398183"><ele>57.0</ele></trkpt><trkpt lat="57.514188" lon="12.398418"><ele>67.2</ele></trkpt><trkpt lat="57.514328" lon="12.399012"><ele>46.8</ele></trkpt><trkpt lat="57.514547" lon="12.399048"><ele>63.2</ele></trkpt><trkpt lat="57.514642" lon="12.398960"><ele>49.6</ele></trkpt><trkpt lat="57.514867" lon="12.399443"><ele>46.4</ele></trkpt><trkpt lat="57.515257" lon="12.399833"><ele>63.8</ele></trkpt><trkpt lat="57.515277" lon="12.399952"><ele>53.6</ele></trkpt><trkpt lat="57.515762" lon="12.400645"><ele>58.8</ele></trkpt><trkpt lat="57.516032" lon="12.400770"><ele>71.2</ele></trkpt><trkpt lat="57.516307" lon="12.401233"><ele>73.0</ele></trkpt><trkpt lat="57.516920" lon="12.401648"><ele>72.0</ele></trkpt><trkpt lat="57.516933" lon="12.401813"><ele>68.6</ele></trkpt><trkpt lat="57.517522" lon="12.402388"><ele>34.8</ele></trkpt><trkpt lat="57.517528" lon="12.402960"><ele>38.6</ele></trkpt><trkpt lat="57.517632" lon="12.403120"><ele>35.0</ele></trkpt><trkpt lat="57.517657" lon="12.403288"><ele>33.6</ele></trkpt><trkpt lat="57.517472" lon="12.403770"><ele>31.2</ele></trkpt><trkpt lat="57.517445" lon="12.404100"><ele>13.2</ele></trkpt><trkpt lat="57.517663" lon="12.404180"><ele>33.2</ele></trkpt><trkpt lat="57.517900" lon="12.404673"><ele>39.0</ele></trkpt><trkpt lat="57.517920" lon="12.405005"><ele>39.4</ele></trkpt><trkpt lat="57.517862" lon="12.405448"><ele>40.8</ele></trkpt><trkpt lat="57.517920" lon="12.405680"><ele>41.6</ele></trkpt><trkpt lat="57.517907" lon="12.405817"><ele>42.4</ele></trkpt><trkpt lat="57.517893" lon="12.405750"><ele>25.0</ele></trkpt><trkpt lat="57.517977" lon="12.405823"><ele>30.8</ele></trkpt><trkpt lat="57.518213" lon="12.406618"><ele>37.2</ele></trkpt><trkpt lat="57.518707" lon="12.407363"><ele>39.2</ele></trkpt><trkpt lat="57.518988" lon="12.407408"><ele>57.0</ele></trkpt><trkpt lat="57.518995" lon="12.407477"><ele>58.0</ele></trkpt><trkpt lat="57.520088" lon="12.408487"><ele>59.4</ele></trkpt><trkpt lat="57.520562" lon="12.408838"><ele>56.0</ele></trkpt><trkpt lat="57.520960" lon="12.408900"><ele>56.8</ele></trkpt><trkpt lat="57.521087" lon="12.409145"><ele>58.6</ele></trkpt><trkpt lat="57.521733" lon="12.409797"><ele>54.6</ele></trkpt><trkpt lat="57.522028" lon="12.409912"><ele>53.4</ele></trkpt><trkpt lat="57.522623" lon="12.409940"><ele>50.8</ele></trkpt><trkpt lat="57.523033" lon="12.410170"><ele>46.6</ele></trkpt><trkpt lat="57.523090" lon="12.410400"><ele>44.8</ele></trkpt><trkpt lat="57.523033" lon="12.410542"><ele>29.4</ele></trkpt><trkpt lat="57.523250" lon="12.410987"><ele>27.0</ele></trkpt><trkpt lat="57.523468" lon="12.411037"><ele>23.8</ele></trkpt><trkpt lat="57.523730" lon="12.411277"><ele>21.0</ele></trkpt><trkpt lat="57.524102" lon="12.411275"><ele>40.0</ele></trkpt><trkpt lat="57.524683" lon="12.411430"><ele>22.6</ele></trkpt><trkpt lat="57.524998" lon="12.411357"><ele>20.8</ele></trkpt><trkpt lat="57.525382" lon="12.411433"><ele>36.0</ele></trkpt><trkpt lat="57.525427" lon="12.411707"><ele>35.6</ele></trkpt><trkpt lat="57.525490" lon="12.411733"><ele>23.8</ele></trkpt><trkpt lat="57.525855" lon="12.412545"><ele>22.2</ele></trkpt><trkpt lat="57.526105" lon="12.412812"><ele>17.4</ele></trkpt><trkpt lat="57.527577" lon="12.412850"><ele>22.6</ele></trkpt><trkpt lat="57.528043" lon="12.413140"><ele>18.6</ele></trkpt><trkpt lat="57.528582" lon="12.412928"><ele>15.0</ele></trkpt><trkpt lat="57.528780" lon="12.413077"><ele>33.8</ele></trkpt><trkpt lat="57.529528" lon="12.413068"><ele>16.0</ele></trkpt><trkpt lat="57.529792" lon="12.412900"><ele>36.4</ele></trkpt><trkpt lat="57.529753" lon="12.412757"><ele>17.8</ele></trkpt><trkpt lat="57.530047" lon="12.412692"><ele>39.0</ele></trkpt><trkpt lat="57.530297" lon="12.412868"><ele>23.4</ele></trkpt><trkpt lat="57.530450" lon="12.412770"><ele>39.6</ele></trkpt><trkpt lat="57.531187" lon="12.412950"><ele>40.4</ele></trkpt><trkpt lat="57.531410" lon="12.413220"><ele>38.4</ele></trkpt><trkpt lat="57.531538" lon="12.413132"><ele>24.0</ele></trkpt><trkpt lat="57.531865" lon="12.413293"><ele>21.0</ele></trkpt><trkpt lat="57.532383" lon="12.414018"><ele>12.2</ele></trkpt><trkpt lat="57.532902" lon="12.414375"><ele>37.0</ele></trkpt><trkpt lat="57.533235" lon="12.414340"><ele>16.8</ele></trkpt><trkpt lat="57.533510" lon="12.414678"><ele>35.4</ele></trkpt><trkpt lat="57.533913" lon="12.414653"><ele>14.4</ele></trkpt><trkpt lat="57.534598" lon="12.414863"><ele>10.4</ele></trkpt><trkpt lat="57.534853" lon="12.415055"><ele>10.4</ele></trkpt><trkpt lat="57.535563" lon="12.414760"><ele>43.8</ele></trkpt><trkpt lat="57.535897" lon="12.414435"><ele>24.2</ele></trkpt><trkpt lat="57.536377" lon="12.413535"><ele>51.4</ele></trkpt><trkpt lat="57.536447" lon="12.413560"><ele>34.8</ele></trkpt><trkpt lat="57.537087" lon="12.414443"><ele>29.4</ele></trkpt><trkpt lat="57.537350" lon="12.415373"><ele>44.2</ele></trkpt><trkpt lat="57.536992" lon="12.416653"><ele>41.0</ele></trkpt><trkpt lat="57.536915" lon="12.416773"><ele>18.0</ele></trkpt><trkpt lat="57.537100" lon="12.417050"><ele>37.0</ele></trkpt><trkpt lat="57.537267" lon="12.417173"><ele>32.2</ele></trkpt><trkpt lat="57.537427" lon="12.417037"><ele>11.2</ele></trkpt><trkpt lat="57.538162" lon="12.416967"><ele>33.6</ele></trkpt><trkpt lat="57.538355" lon="12.417040"><ele>20.4</ele></trkpt><trkpt lat="57.538310" lon="12.417347"><ele>33.4</ele></trkpt><trkpt lat="57.538123" lon="12.417948"><ele>19.2</ele></trkpt><trkpt lat="57.538182" lon="12.417958"><ele>11.4</ele></trkpt><trkpt lat="57.538393" lon="12.418397"><ele>32.4</ele></trkpt><trkpt lat="57.539020" lon="12.418478"><ele>19.6</ele></trkpt><trkpt lat="57.539820" lon="12.418997"><ele>33.0</ele></trkpt><trkpt lat="57.540005" lon="12.418820"><ele>11.8</ele></trkpt><trkpt lat="57.540377" lon="12.418232"><ele>22.0</ele></trkpt><trkpt lat="57.540568" lon="12.418218"><ele>22.2</ele></trkpt><trkpt lat="57.542565" lon="12.419282"><ele>34.8</ele></trkpt><trkpt lat="57.543110" lon="12.419452"><ele>13.0</ele></trkpt><trkpt lat="57.543187" lon="12.419580"><ele>34.4</ele></trkpt><trkpt lat="57.543225" lon="12.420770"><ele>12.6</ele></trkpt><trkpt lat="57.542752" lon="12.422670"><ele>22.0</ele></trkpt><trkpt lat="57.542662" lon="12.423357"><ele>22.4</ele></trkpt><trkpt lat="57.541765" lon="12.423987"><ele>32.6</ele></trkpt><trkpt lat="57.540933" lon="12.424103"><ele>32.6</ele></trkpt><trkpt lat="57.540645" lon="12.424253"><ele>32.2</ele></trkpt><trkpt lat="57.540453" lon="12.425568"><ele>30.0</ele></trkpt><trkpt lat="57.540480" lon="12.425797"><ele>20.4</ele></trkpt><trkpt lat="57.540397" lon="12.426720"><ele>30.6</ele></trkpt><trkpt lat="57.540050" lon="12.428072"><ele>21.0</ele></trkpt><trkpt lat="57.539558" lon="12.428678"><ele>31.6</ele></trkpt><trkpt lat="57.539333" lon="12.428790"><ele>12.4</ele></trkpt><trkpt lat="57.539282" lon="12.428543"><ele>11.4</ele></trkpt><trkpt lat="57.538912" lon="12.427960"><ele>28.0</ele></trkpt><trkpt lat="57.538572" lon="12.427903"><ele>9.4</ele></trkpt><trkpt lat="57.538502" lon="12.428007"><ele>17.8</ele></trkpt><trkpt lat="57.538297" lon="12.427775"><ele>18.0</ele></trkpt><trkpt lat="57.538112" lon="12.427755"><ele>9.6</ele></trkpt><trkpt lat="57.537925" lon="12.427543"><ele>29.2</ele></trkpt><trkpt lat="57.537605" lon="12.427640"><ele>28.8</ele></trkpt><trkpt lat="57.537285" lon="12.428152"><ele>18.6</ele></trkpt><trkpt lat="57.537068" lon="12.429610"><ele>9.6</ele></trkpt><trkpt lat="57.536953" lon="12.429778"><ele>9.8</ele></trkpt><trkpt lat="57.536665" lon="12.429750"><ele>17.6</ele></trkpt><trkpt lat="57.536512" lon="12.429577"><ele>18.0</ele></trkpt><trkpt lat="57.536453" lon="12.429262"><ele>27.8</ele></trkpt><trkpt lat="57.536640" lon="12.428255"><ele>27.8</ele></trkpt><trkpt lat="57.536678" lon="12.427670"><ele>16.6</ele></trkpt><trkpt lat="57.536832" lon="12.427480"><ele>9.6</ele></trkpt><trkpt lat="57.536985" lon="12.427540"><ele>9.6</ele></trkpt></trkseg></trk></gpx>