<?xml version='1.0' encoding='utf-8'?>
<gpx xmlns="http://www.topografix.com/GPX/1/1" version="1.1" creator="Sätila Splits – owner-approved reconstructed normalized display route"><metadata /><trk><name>trail43-2021-2022-normalized</name><trkseg><trkpt lat="57.536192" lon="12.429610"><ele>12.4</ele></trkpt><trkpt lat="57.536287" lon="12.428377"><ele>12.4</ele></trkpt><trkpt lat="57.536280" lon="12.427838"><ele>12.0</ele></trkpt><trkpt lat="57.536467" lon="12.426543"><ele>12.4</ele></trkpt><trkpt lat="57.536543" lon="12.424625"><ele>12.8</ele></trkpt><trkpt lat="57.536467" lon="12.424287"><ele>12.8</ele></trkpt><trkpt lat="57.536280" lon="12.424117"><ele>12.6</ele></trkpt><trkpt lat="57.536178" lon="12.423858"><ele>12.0</ele></trkpt><trkpt lat="57.536057" lon="12.423027"><ele>12.0</ele></trkpt><trkpt lat="57.535743" lon="12.421657"><ele>12.2</ele></trkpt><trkpt lat="57.535673" lon="12.421080"><ele>13.0</ele></trkpt><trkpt lat="57.535698" lon="12.420782"><ele>13.0</ele></trkpt><trkpt lat="57.535858" lon="12.420332"><ele>12.4</ele></trkpt><trkpt lat="57.536088" lon="12.419943"><ele>12.6</ele></trkpt><trkpt lat="57.536172" lon="12.419913"><ele>12.8</ele></trkpt><trkpt lat="57.536287" lon="12.420022"><ele>12.8</ele></trkpt><trkpt lat="57.536408" lon="12.420420"><ele>13.0</ele></trkpt><trkpt lat="57.536505" lon="12.421057"><ele>12.6</ele></trkpt><trkpt lat="57.536512" lon="12.421422"><ele>12.8</ele></trkpt><trkpt lat="57.536658" lon="12.422125"><ele>13.2</ele></trkpt><trkpt lat="57.536575" lon="12.422587"><ele>13.4</ele></trkpt><trkpt lat="57.536595" lon="12.423245"><ele>13.6</ele></trkpt><trkpt lat="57.536877" lon="12.425312"><ele>13.0</ele></trkpt><trkpt lat="57.536850" lon="12.425695"><ele>13.0</ele></trkpt><trkpt lat="57.536877" lon="12.425958"><ele>13.2</ele></trkpt><trkpt lat="57.537107" lon="12.426552"><ele>12.8</ele></trkpt><trkpt lat="57.537228" lon="12.426552"><ele>13.4</ele></trkpt><trkpt lat="57.537362" lon="12.426790"><ele>13.4</ele></trkpt><trkpt lat="57.537413" lon="12.427198"><ele>14.0</ele></trkpt><trkpt lat="57.537395" lon="12.427822"><ele>14.0</ele></trkpt><trkpt lat="57.537247" lon="12.428317"><ele>14.0</ele></trkpt><trkpt lat="57.537208" lon="12.428855"><ele>13.8</ele></trkpt><trkpt lat="57.537023" lon="12.429780"><ele>13.8</ele></trkpt><trkpt lat="57.536972" lon="12.429860"><ele>13.8</ele></trkpt><trkpt lat="57.536850" lon="12.429978"><ele>14.0</ele></trkpt><trkpt lat="57.536613" lon="12.429927"><ele>13.8</ele></trkpt><trkpt lat="57.536428" lon="12.429683"><ele>13.8</ele></trkpt><trkpt lat="57.536370" lon="12.429392"><ele>13.4</ele></trkpt><trkpt lat="57.536230" lon="12.429388"><ele>13.2</ele></trkpt><trkpt lat="57.536203" lon="12.429800"><ele>14.0</ele></trkpt><trkpt lat="57.536095" lon="12.430195"><ele>13.6</ele></trkpt><trkpt lat="57.536057" lon="12.430737"><ele>13.2</ele></trkpt><trkpt lat="57.535827" lon="12.431637"><ele>13.6</ele></trkpt><trkpt lat="57.535583" lon="12.431908"><ele>13.4</ele></trkpt><trkpt lat="57.535398" lon="12.431962"><ele>13.0</ele></trkpt><trkpt lat="57.535148" lon="12.433415"><ele>12.0</ele></trkpt><trkpt lat="57.535027" lon="12.433687"><ele>12.2</ele></trkpt><trkpt lat="57.535078" lon="12.433863"><ele>12.2</ele></trkpt><trkpt lat="57.535078" lon="12.434182"><ele>12.6</ele></trkpt><trkpt lat="57.534918" lon="12.435047"><ele>12.4</ele></trkpt><trkpt lat="57.534783" lon="12.435423"><ele>12.4</ele></trkpt><trkpt lat="57.534752" lon="12.435842"><ele>12.2</ele></trkpt><trkpt lat="57.534520" lon="12.436150"><ele>11.8</ele></trkpt><trkpt lat="57.534482" lon="12.436337"><ele>11.6</ele></trkpt><trkpt lat="57.534515" lon="12.436447"><ele>11.6</ele></trkpt><trkpt lat="57.534348" lon="12.436968"><ele>11.6</ele></trkpt><trkpt lat="57.534047" lon="12.437420"><ele>11.2</ele></trkpt><trkpt lat="57.533963" lon="12.437460"><ele>10.8</ele></trkpt><trkpt lat="57.533772" lon="12.438045"><ele>10.4</ele></trkpt><trkpt lat="57.533497" lon="12.438672"><ele>10.0</ele></trkpt><trkpt lat="57.533093" lon="12.439227"><ele>10.2</ele></trkpt><trkpt lat="57.533132" lon="12.439387"><ele>9.6</ele></trkpt><trkpt lat="57.533107" lon="12.439467"><ele>9.8</ele></trkpt><trkpt lat="57.532498" lon="12.439703"><ele>10.0</ele></trkpt><trkpt lat="57.532255" lon="12.439450"><ele>9.2</ele></trkpt><trkpt lat="57.531813" lon="12.439440"><ele>13.6</ele></trkpt><trkpt lat="57.531442" lon="12.438472"><ele>15.0</ele></trkpt><trkpt lat="57.531270" lon="12.438263"><ele>12.2</ele></trkpt><trkpt lat="57.531128" lon="12.438218"><ele>11.8</ele></trkpt><trkpt lat="57.530982" lon="12.437845"><ele>12.2</ele></trkpt><trkpt lat="57.530847" lon="12.437720"><ele>11.8</ele></trkpt><trkpt lat="57.530527" lon="12.437202"><ele>11.4</ele></trkpt><trkpt lat="57.530233" lon="12.436967"><ele>11.0</ele></trkpt><trkpt lat="57.530085" lon="12.436913"><ele>9.0</ele></trkpt><trkpt lat="57.529875" lon="12.436982"><ele>9.4</ele></trkpt><trkpt lat="57.529733" lon="12.437138"><ele>10.0</ele></trkpt><trkpt lat="57.529503" lon="12.437232"><ele>11.0</ele></trkpt><trkpt lat="57.529400" lon="12.437430"><ele>11.2</ele></trkpt><trkpt lat="57.527883" lon="12.436458"><ele>11.0</ele></trkpt><trkpt lat="57.527673" lon="12.436452"><ele>10.2</ele></trkpt><trkpt lat="57.527302" lon="12.436280"><ele>8.4</ele></trkpt><trkpt lat="57.527167" lon="12.436258"><ele>8.0</ele></trkpt><trkpt lat="57.526732" lon="12.436580"><ele>9.0</ele></trkpt><trkpt lat="57.526367" lon="12.436605"><ele>8.4</ele></trkpt><trkpt lat="57.526348" lon="12.436453"><ele>7.2</ele></trkpt><trkpt lat="57.526200" lon="12.436215"><ele>5.6</ele></trkpt><trkpt lat="57.525305" lon="12.435435"><ele>12.2</ele></trkpt><trkpt lat="57.525183" lon="12.435158"><ele>13.6</ele></trkpt><trkpt lat="57.524940" lon="12.434962"><ele>11.2</ele></trkpt><trkpt lat="57.524633" lon="12.435112"><ele>8.2</ele></trkpt><trkpt lat="57.524383" lon="12.435482"><ele>8.4</ele></trkpt><trkpt lat="57.524133" lon="12.435538"><ele>7.8</ele></trkpt><trkpt lat="57.523545" lon="12.436320"><ele>8.4</ele></trkpt><trkpt lat="57.523403" lon="12.436433"><ele>7.4</ele></trkpt><trkpt lat="57.523340" lon="12.436590"><ele>7.4</ele></trkpt><trkpt lat="57.523065" lon="12.436717"><ele>6.2</ele></trkpt><trkpt lat="57.522790" lon="12.437265"><ele>7.6</ele></trkpt><trkpt lat="57.522867" lon="12.437500"><ele>9.4</ele></trkpt><trkpt lat="57.523238" lon="12.437433"><ele>14.0</ele></trkpt><trkpt lat="57.523353" lon="12.437562"><ele>15.0</ele></trkpt><trkpt lat="57.523628" lon="12.438780"><ele>19.2</ele></trkpt><trkpt lat="57.523775" lon="12.439032"><ele>19.2</ele></trkpt><trkpt lat="57.524038" lon="12.439193"><ele>18.0</ele></trkpt><trkpt lat="57.524095" lon="12.439335"><ele>15.2</ele></trkpt><trkpt lat="57.523903" lon="12.439432"><ele>9.4</ele></trkpt><trkpt lat="57.523852" lon="12.439748"><ele>6.8</ele></trkpt><trkpt lat="57.523865" lon="12.440005"><ele>6.4</ele></trkpt><trkpt lat="57.523680" lon="12.440772"><ele>6.0</ele></trkpt><trkpt lat="57.523187" lon="12.441447"><ele>5.4</ele></trkpt><trkpt lat="57.523045" lon="12.441958"><ele>4.8</ele></trkpt><trkpt lat="57.522432" lon="12.442152"><ele>4.4</ele></trkpt><trkpt lat="57.521837" lon="12.442648"><ele>4.6</ele></trkpt><trkpt lat="57.521395" lon="12.442790"><ele>5.0</ele></trkpt><trkpt lat="57.520088" lon="12.442747"><ele>6.4</ele></trkpt><trkpt lat="57.518822" lon="12.442240"><ele>7.8</ele></trkpt><trkpt lat="57.518195" lon="12.441390"><ele>7.0</ele></trkpt><trkpt lat="57.517842" lon="12.441068"><ele>6.2</ele></trkpt><trkpt lat="57.517330" lon="12.440785"><ele>6.0</ele></trkpt><trkpt lat="57.516915" lon="12.440760"><ele>5.8</ele></trkpt><trkpt lat="57.516518" lon="12.440587"><ele>5.8</ele></trkpt><trkpt lat="57.515545" lon="12.439907"><ele>6.8</ele></trkpt><trkpt lat="57.514937" lon="12.439663"><ele>5.4</ele></trkpt><trkpt lat="57.514808" lon="12.439773"><ele>6.0</ele></trkpt><trkpt lat="57.514758" lon="12.439903"><ele>7.0</ele></trkpt><trkpt lat="57.514763" lon="12.440080"><ele>9.0</ele></trkpt><trkpt lat="57.515000" lon="12.440637"><ele>14.8</ele></trkpt><trkpt lat="57.515045" lon="12.440930"><ele>16.4</ele></trkpt><trkpt lat="57.515027" lon="12.441017"><ele>17.0</ele></trkpt><trkpt lat="57.514847" lon="12.441035"><ele>17.6</ele></trkpt><trkpt lat="57.514463" lon="12.440608"><ele>17.2</ele></trkpt><trkpt lat="57.514092" lon="12.440340"><ele>13.2</ele></trkpt><trkpt lat="57.513093" lon="12.439972"><ele>11.4</ele></trkpt><trkpt lat="57.512780" lon="12.439610"><ele>10.6</ele></trkpt><trkpt lat="57.512460" lon="12.439053"><ele>9.2</ele></trkpt><trkpt lat="57.512300" lon="12.438130"><ele>6.8</ele></trkpt><trkpt lat="57.512153" lon="12.437683"><ele>6.2</ele></trkpt><trkpt lat="57.512038" lon="12.436997"><ele>6.6</ele></trkpt><trkpt lat="57.512000" lon="12.435827"><ele>5.0</ele></trkpt><trkpt lat="57.511730" lon="12.435147"><ele>4.8</ele></trkpt><trkpt lat="57.511653" lon="12.434460"><ele>6.6</ele></trkpt><trkpt lat="57.511532" lon="12.434095"><ele>7.0</ele></trkpt><trkpt lat="57.511513" lon="12.433698"><ele>7.6</ele></trkpt><trkpt lat="57.511437" lon="12.433457"><ele>9.4</ele></trkpt><trkpt lat="57.511507" lon="12.433387"><ele>10.8</ele></trkpt><trkpt lat="57.511238" lon="12.432793"><ele>17.0</ele></trkpt><trkpt lat="57.511270" lon="12.432655"><ele>18.6</ele></trkpt><trkpt lat="57.511193" lon="12.432515"><ele>20.0</ele></trkpt><trkpt lat="57.511052" lon="12.431882"><ele>25.6</ele></trkpt><trkpt lat="57.510777" lon="12.431218"><ele>31.6</ele></trkpt><trkpt lat="57.510233" lon="12.430165"><ele>27.6</ele></trkpt><trkpt lat="57.509893" lon="12.430355"><ele>34.0</ele></trkpt><trkpt lat="57.509593" lon="12.430185"><ele>38.4</ele></trkpt><trkpt lat="57.509375" lon="12.429932"><ele>40.8</ele></trkpt><trkpt lat="57.509285" lon="12.430057"><ele>42.0</ele></trkpt><trkpt lat="57.509048" lon="12.429748"><ele>45.4</ele></trkpt><trkpt lat="57.508703" lon="12.429207"><ele>47.8</ele></trkpt><trkpt lat="57.508428" lon="12.428488"><ele>49.8</ele></trkpt><trkpt lat="57.508178" lon="12.428260"><ele>51.4</ele></trkpt><trkpt lat="57.507813" lon="12.427760"><ele>54.4</ele></trkpt><trkpt lat="57.507398" lon="12.426282"><ele>54.2</ele></trkpt><trkpt lat="57.506860" lon="12.424993"><ele>51.8</ele></trkpt><trkpt lat="57.506802" lon="12.424933"><ele>51.0</ele></trkpt><trkpt lat="57.506603" lon="12.425002"><ele>52.6</ele></trkpt><trkpt lat="57.506642" lon="12.425427"><ele>56.2</ele></trkpt><trkpt lat="57.506777" lon="12.425752"><ele>60.0</ele></trkpt><trkpt lat="57.506713" lon="12.426770"><ele>67.6</ele></trkpt><trkpt lat="57.506898" lon="12.427650"><ele>68.0</ele></trkpt><trkpt lat="57.506962" lon="12.428363"><ele>69.2</ele></trkpt><trkpt lat="57.507180" lon="12.429135"><ele>70.6</ele></trkpt><trkpt lat="57.507288" lon="12.429213"><ele>71.6</ele></trkpt><trkpt lat="57.507257" lon="12.429547"><ele>74.8</ele></trkpt><trkpt lat="57.507398" lon="12.430037"><ele>77.0</ele></trkpt><trkpt lat="57.507410" lon="12.430420"><ele>78.2</ele></trkpt><trkpt lat="57.507520" lon="12.430740"><ele>78.8</ele></trkpt><trkpt lat="57.507602" lon="12.430773"><ele>78.6</ele></trkpt><trkpt lat="57.507660" lon="12.431318"><ele>81.2</ele></trkpt><trkpt lat="57.507820" lon="12.431740"><ele>81.6</ele></trkpt><trkpt lat="57.507782" lon="12.431838"><ele>82.0</ele></trkpt><trkpt lat="57.507590" lon="12.431895"><ele>82.2</ele></trkpt><trkpt lat="57.507167" lon="12.431558"><ele>84.4</ele></trkpt><trkpt lat="57.506867" lon="12.431222"><ele>85.2</ele></trkpt><trkpt lat="57.506763" lon="12.431200"><ele>85.4</ele></trkpt><trkpt lat="57.506700" lon="12.430985"><ele>86.4</ele></trkpt><trkpt lat="57.506348" lon="12.430687"><ele>89.8</ele></trkpt><trkpt lat="57.506105" lon="12.430297"><ele>89.8</ele></trkpt><trkpt lat="57.505663" lon="12.430043"><ele>90.8</ele></trkpt><trkpt lat="57.505440" lon="12.430237"><ele>89.8</ele></trkpt><trkpt lat="57.505375" lon="12.430850"><ele>91.4</ele></trkpt><trkpt lat="57.505413" lon="12.431658"><ele>95.4</ele></trkpt><trkpt lat="57.505318" lon="12.432012"><ele>100.6</ele></trkpt><trkpt lat="57.505395" lon="12.432733"><ele>104.6</ele></trkpt><trkpt lat="57.505465" lon="12.432947"><ele>105.2</ele></trkpt><trkpt lat="57.505440" lon="12.434075"><ele>108.6</ele></trkpt><trkpt lat="57.505350" lon="12.434547"><ele>110.6</ele></trkpt><trkpt lat="57.505093" lon="12.435090"><ele>113.0</ele></trkpt><trkpt lat="57.504742" lon="12.436637"><ele>116.6</ele></trkpt><trkpt lat="57.504672" lon="12.437595"><ele>118.0</ele></trkpt><trkpt lat="57.504742" lon="12.437922"><ele>118.0</ele></trkpt><trkpt lat="57.505197" lon="12.438670"><ele>117.8</ele></trkpt><trkpt lat="57.505510" lon="12.439503"><ele>118.4</ele></trkpt><trkpt lat="57.505510" lon="12.439728"><ele>118.8</ele></trkpt><trkpt lat="57.505260" lon="12.440480"><ele>120.8</ele></trkpt><trkpt lat="57.505235" lon="12.440823"><ele>120.6</ele></trkpt><trkpt lat="57.505292" lon="12.441525"><ele>120.8</ele></trkpt><trkpt lat="57.505663" lon="12.442737"><ele>121.8</ele></trkpt><trkpt lat="57.506443" lon="12.444347"><ele>113.2</ele></trkpt><trkpt lat="57.506777" lon="12.444862"><ele>114.4</ele></trkpt><trkpt lat="57.507000" lon="12.445443"><ele>111.6</ele></trkpt><trkpt lat="57.507628" lon="12.446102"><ele>107.8</ele></trkpt><trkpt lat="57.507685" lon="12.446272"><ele>107.2</ele></trkpt><trkpt lat="57.507365" lon="12.446968"><ele>109.2</ele></trkpt><trkpt lat="57.507327" lon="12.447413"><ele>109.2</ele></trkpt><trkpt lat="57.507238" lon="12.447588"><ele>109.2</ele></trkpt><trkpt lat="57.505337" lon="12.448790"><ele>109.0</ele></trkpt><trkpt lat="57.504793" lon="12.450790"><ele>109.6</ele></trkpt><trkpt lat="57.505465" lon="12.452032"><ele>107.2</ele></trkpt><trkpt lat="57.506067" lon="12.452097"><ele>108.2</ele></trkpt><trkpt lat="57.506527" lon="12.452395"><ele>109.4</ele></trkpt><trkpt lat="57.506995" lon="12.452497"><ele>110.0</ele></trkpt><trkpt lat="57.507117" lon="12.452660"><ele>110.0</ele></trkpt><trkpt lat="57.506988" lon="12.453357"><ele>111.0</ele></trkpt><trkpt lat="57.507117" lon="12.454217"><ele>107.8</ele></trkpt><trkpt lat="57.507340" lon="12.454963"><ele>103.6</ele></trkpt><trkpt lat="57.507442" lon="12.456558"><ele>97.8</ele></trkpt><trkpt lat="57.507423" lon="12.457098"><ele>97.0</ele></trkpt><trkpt lat="57.507500" lon="12.457337"><ele>96.4</ele></trkpt><trkpt lat="57.507730" lon="12.457525"><ele>96.4</ele></trkpt><trkpt lat="57.507935" lon="12.457803"><ele>96.6</ele></trkpt><trkpt lat="57.508038" lon="12.458097"><ele>96.6</ele></trkpt><trkpt lat="57.508230" lon="12.459072"><ele>94.4</ele></trkpt><trkpt lat="57.507973" lon="12.459652"><ele>91.2</ele></trkpt><trkpt lat="57.507955" lon="12.460055"><ele>89.8</ele></trkpt><trkpt lat="57.507840" lon="12.460427"><ele>89.8</ele></trkpt><trkpt lat="57.507840" lon="12.460600"><ele>90.2</ele></trkpt><trkpt lat="57.508082" lon="12.461885"><ele>90.0</ele></trkpt><trkpt lat="57.508088" lon="12.462228"><ele>89.6</ele></trkpt><trkpt lat="57.508025" lon="12.462745"><ele>88.8</ele></trkpt><trkpt lat="57.508428" lon="12.463480"><ele>87.8</ele></trkpt><trkpt lat="57.508480" lon="12.464103"><ele>84.4</ele></trkpt><trkpt lat="57.508415" lon="12.464440"><ele>84.0</ele></trkpt><trkpt lat="57.507872" lon="12.464835"><ele>79.6</ele></trkpt><trkpt lat="57.507608" lon="12.465272"><ele>79.2</ele></trkpt><trkpt lat="57.507622" lon="12.465570"><ele>78.8</ele></trkpt><trkpt lat="57.507577" lon="12.465732"><ele>78.2</ele></trkpt><trkpt lat="57.507608" lon="12.466188"><ele>77.8</ele></trkpt><trkpt lat="57.507570" lon="12.466295"><ele>78.0</ele></trkpt><trkpt lat="57.507608" lon="12.466925"><ele>75.4</ele></trkpt><trkpt lat="57.507878" lon="12.467507"><ele>73.6</ele></trkpt><trkpt lat="57.508108" lon="12.468470"><ele>71.0</ele></trkpt><trkpt lat="57.508070" lon="12.468632"><ele>70.0</ele></trkpt><trkpt lat="57.507993" lon="12.468607"><ele>69.6</ele></trkpt><trkpt lat="57.507973" lon="12.468667"><ele>69.2</ele></trkpt><trkpt lat="57.507935" lon="12.469143"><ele>67.4</ele></trkpt><trkpt lat="57.508102" lon="12.469982"><ele>68.6</ele></trkpt><trkpt lat="57.508057" lon="12.470330"><ele>67.4</ele></trkpt><trkpt lat="57.508088" lon="12.471248"><ele>65.2</ele></trkpt><trkpt lat="57.507935" lon="12.471785"><ele>64.0</ele></trkpt><trkpt lat="57.507935" lon="12.472187"><ele>64.2</ele></trkpt><trkpt lat="57.508057" lon="12.472680"><ele>64.2</ele></trkpt><trkpt lat="57.508070" lon="12.473018"><ele>64.0</ele></trkpt><trkpt lat="57.507955" lon="12.473540"><ele>64.6</ele></trkpt><trkpt lat="57.507698" lon="12.474252"><ele>67.2</ele></trkpt><trkpt lat="57.507417" lon="12.475418"><ele>72.2</ele></trkpt><trkpt lat="57.507500" lon="12.476978"><ele>76.4</ele></trkpt><trkpt lat="57.507187" lon="12.478598"><ele>80.8</ele></trkpt><trkpt lat="57.507263" lon="12.479603"><ele>79.0</ele></trkpt><trkpt lat="57.507622" lon="12.480298"><ele>80.0</ele></trkpt><trkpt lat="57.508077" lon="12.480807"><ele>82.0</ele></trkpt><trkpt lat="57.508850" lon="12.482042"><ele>87.0</ele></trkpt><trkpt lat="57.509190" lon="12.482840"><ele>86.0</ele></trkpt><trkpt lat="57.509285" lon="12.483828"><ele>85.0</ele></trkpt><trkpt lat="57.509138" lon="12.484942"><ele>86.2</ele></trkpt><trkpt lat="57.509152" lon="12.485735"><ele>87.6</ele></trkpt><trkpt lat="57.509932" lon="12.487805"><ele>88.0</ele></trkpt><trkpt lat="57.510053" lon="12.488557"><ele>89.2</ele></trkpt><trkpt lat="57.510603" lon="12.490777"><ele>87.6</ele></trkpt><trkpt lat="57.510822" lon="12.491120"><ele>87.6</ele></trkpt><trkpt lat="57.511487" lon="12.491470"><ele>87.8</ele></trkpt><trkpt lat="57.512300" lon="12.493042"><ele>89.2</ele></trkpt><trkpt lat="57.512512" lon="12.493523"><ele>89.6</ele></trkpt><trkpt lat="57.512530" lon="12.493660"><ele>89.4</ele></trkpt><trkpt lat="57.512467" lon="12.493967"><ele>89.2</ele></trkpt><trkpt lat="57.512480" lon="12.494728"><ele>87.2</ele></trkpt><trkpt lat="57.512230" lon="12.495697"><ele>89.2</ele></trkpt><trkpt lat="57.512242" lon="12.496555"><ele>93.2</ele></trkpt><trkpt lat="57.512185" lon="12.497473"><ele>96.2</ele></trkpt><trkpt lat="57.512300" lon="12.498360"><ele>95.4</ele></trkpt><trkpt lat="57.512300" lon="12.498848"><ele>94.4</ele></trkpt><trkpt lat="57.512043" lon="12.499528"><ele>96.2</ele></trkpt><trkpt lat="57.512032" lon="12.500003"><ele>96.8</ele></trkpt><trkpt lat="57.511960" lon="12.500373"><ele>97.0</ele></trkpt><trkpt lat="57.511423" lon="12.501245"><ele>100.6</ele></trkpt><trkpt lat="57.510918" lon="12.502570"><ele>108.8</ele></trkpt><trkpt lat="57.510867" lon="12.502920"><ele>108.8</ele></trkpt><trkpt lat="57.510885" lon="12.503057"><ele>109.4</ele></trkpt><trkpt lat="57.510828" lon="12.503212"><ele>109.8</ele></trkpt><trkpt lat="57.510725" lon="12.504758"><ele>106.0</ele></trkpt><trkpt lat="57.510815" lon="12.505940"><ele>103.2</ele></trkpt><trkpt lat="57.510693" lon="12.506732"><ele>102.6</ele></trkpt><trkpt lat="57.510720" lon="12.507122"><ele>100.6</ele></trkpt><trkpt lat="57.510815" lon="12.507547"><ele>98.0</ele></trkpt><trkpt lat="57.510713" lon="12.508360"><ele>92.8</ele></trkpt><trkpt lat="57.510617" lon="12.509733"><ele>89.4</ele></trkpt><trkpt lat="57.510720" lon="12.511655"><ele>94.8</ele></trkpt><trkpt lat="57.510873" lon="12.512427"><ele>95.6</ele></trkpt><trkpt lat="57.510905" lon="12.512840"><ele>96.0</ele></trkpt><trkpt lat="57.511013" lon="12.513245"><ele>96.4</ele></trkpt><trkpt lat="57.511782" lon="12.513368"><ele>101.0</ele></trkpt><trkpt lat="57.512710" lon="12.513970"><ele>101.8</ele></trkpt><trkpt lat="57.513197" lon="12.514018"><ele>97.0</ele></trkpt><trkpt lat="57.513483" lon="12.513263"><ele>91.4</ele></trkpt><trkpt lat="57.513638" lon="12.513045"><ele>89.4</ele></trkpt><trkpt lat="57.514168" lon="12.512662"><ele>86.0</ele></trkpt><trkpt lat="57.515417" lon="12.511313"><ele>90.0</ele></trkpt><trkpt lat="57.515718" lon="12.511473"><ele>91.4</ele></trkpt><trkpt lat="57.516153" lon="12.511918"><ele>91.0</ele></trkpt><trkpt lat="57.516390" lon="12.512047"><ele>89.4</ele></trkpt><trkpt lat="57.517445" lon="12.511652"><ele>87.2</ele></trkpt><trkpt lat="57.517868" lon="12.511650"><ele>86.6</ele></trkpt><trkpt lat="57.518808" lon="12.511930"><ele>83.8</ele></trkpt><trkpt lat="57.519347" lon="12.511923"><ele>83.6</ele></trkpt><trkpt lat="57.519993" lon="12.512048"><ele>83.6</ele></trkpt><trkpt lat="57.521132" lon="12.512117"><ele>81.8</ele></trkpt><trkpt lat="57.521688" lon="12.511973"><ele>85.2</ele></trkpt><trkpt lat="57.522355" lon="12.511533"><ele>81.4</ele></trkpt><trkpt lat="57.523270" lon="12.511305"><ele>76.2</ele></trkpt><trkpt lat="57.523622" lon="12.510820"><ele>74.6</ele></trkpt><trkpt lat="57.523813" lon="12.510383"><ele>73.8</ele></trkpt><trkpt lat="57.523795" lon="12.508647"><ele>72.6</ele></trkpt><trkpt lat="57.523698" lon="12.508018"><ele>71.8</ele></trkpt><trkpt lat="57.523597" lon="12.507673"><ele>72.4</ele></trkpt><trkpt lat="57.523795" lon="12.506355"><ele>77.2</ele></trkpt><trkpt lat="57.523917" lon="12.506100"><ele>76.4</ele></trkpt><trkpt lat="57.524005" lon="12.505702"><ele>75.8</ele></trkpt><trkpt lat="57.524217" lon="12.505470"><ele>76.4</ele></trkpt><trkpt lat="57.524512" lon="12.505420"><ele>76.4</ele></trkpt><trkpt lat="57.524678" lon="12.505257"><ele>77.6</ele></trkpt><trkpt lat="57.524832" lon="12.504747"><ele>78.8</ele></trkpt><trkpt lat="57.524832" lon="12.504348"><ele>78.0</ele></trkpt><trkpt lat="57.524960" lon="12.503798"><ele>77.6</ele></trkpt><trkpt lat="57.524985" lon="12.503198"><ele>80.4</ele></trkpt><trkpt lat="57.524920" lon="12.502697"><ele>82.4</ele></trkpt><trkpt lat="57.524600" lon="12.502302"><ele>84.6</ele></trkpt><trkpt lat="57.524422" lon="12.501840"><ele>86.0</ele></trkpt><trkpt lat="57.524287" lon="12.501252"><ele>86.4</ele></trkpt><trkpt lat="57.524005" lon="12.500673"><ele>88.6</ele></trkpt><trkpt lat="57.523723" lon="12.499633"><ele>90.0</ele></trkpt><trkpt lat="57.523500" lon="12.498280"><ele>91.0</ele></trkpt><trkpt lat="57.522412" lon="12.495478"><ele>91.8</ele></trkpt><trkpt lat="57.522060" lon="12.494275"><ele>89.8</ele></trkpt><trkpt lat="57.521593" lon="12.493375"><ele>91.6</ele></trkpt><trkpt lat="57.521343" lon="12.492488"><ele>90.2</ele></trkpt><trkpt lat="57.520543" lon="12.491510"><ele>87.2</ele></trkpt><trkpt lat="57.520358" lon="12.490990"><ele>86.0</ele></trkpt><trkpt lat="57.520210" lon="12.490815"><ele>84.0</ele></trkpt><trkpt lat="57.520032" lon="12.490323"><ele>82.2</ele></trkpt><trkpt lat="57.519807" lon="12.489960"><ele>82.0</ele></trkpt><trkpt lat="57.519647" lon="12.489297"><ele>80.0</ele></trkpt><trkpt lat="57.519372" lon="12.488875"><ele>79.0</ele></trkpt><trkpt lat="57.519320" lon="12.488467"><ele>77.6</ele></trkpt><trkpt lat="57.519398" lon="12.487718"><ele>74.2</ele></trkpt><trkpt lat="57.519308" lon="12.487182"><ele>72.8</ele></trkpt><trkpt lat="57.519218" lon="12.487155"><ele>72.4</ele></trkpt><trkpt lat="57.518853" lon="12.487455"><ele>74.2</ele></trkpt><trkpt lat="57.518258" lon="12.487102"><ele>77.0</ele></trkpt><trkpt lat="57.518123" lon="12.487320"><ele>77.2</ele></trkpt><trkpt lat="57.517925" lon="12.487393"><ele>75.4</ele></trkpt><trkpt lat="57.517643" lon="12.487738"><ele>73.2</ele></trkpt><trkpt lat="57.517273" lon="12.487822"><ele>73.0</ele></trkpt><trkpt lat="57.516665" lon="12.487473"><ele>73.6</ele></trkpt><trkpt lat="57.516582" lon="12.487340"><ele>74.6</ele></trkpt><trkpt lat="57.515813" lon="12.487265"><ele>81.2</ele></trkpt><trkpt lat="57.515378" lon="12.487587"><ele>82.0</ele></trkpt><trkpt lat="57.514675" lon="12.488472"><ele>80.6</ele></trkpt><trkpt lat="57.514080" lon="12.488820"><ele>80.8</ele></trkpt><trkpt lat="57.513868" lon="12.489323"><ele>80.6</ele></trkpt><trkpt lat="57.513792" lon="12.489643"><ele>79.8</ele></trkpt><trkpt lat="57.513452" lon="12.490168"><ele>80.0</ele></trkpt><trkpt lat="57.513170" lon="12.490105"><ele>84.4</ele></trkpt><trkpt lat="57.512972" lon="12.490278"><ele>86.0</ele></trkpt><trkpt lat="57.512780" lon="12.490328"><ele>86.6</ele></trkpt><trkpt lat="57.512717" lon="12.490253"><ele>87.2</ele></trkpt><trkpt lat="57.512600" lon="12.489840"><ele>87.4</ele></trkpt><trkpt lat="57.512275" lon="12.489515"><ele>86.6</ele></trkpt><trkpt lat="57.512025" lon="12.488927"><ele>86.6</ele></trkpt><trkpt lat="57.511883" lon="12.488253"><ele>84.2</ele></trkpt><trkpt lat="57.511865" lon="12.487685"><ele>83.2</ele></trkpt><trkpt lat="57.511928" lon="12.487382"><ele>84.2</ele></trkpt><trkpt lat="57.512082" lon="12.487020"><ele>83.6</ele></trkpt><trkpt lat="57.512108" lon="12.486362"><ele>84.4</ele></trkpt><trkpt lat="57.512217" lon="12.485672"><ele>84.2</ele></trkpt><trkpt lat="57.512140" lon="12.484048"><ele>81.8</ele></trkpt><trkpt lat="57.511922" lon="12.483682"><ele>83.8</ele></trkpt><trkpt lat="57.511800" lon="12.483240"><ele>82.2</ele></trkpt><trkpt lat="57.511692" lon="12.482152"><ele>79.4</ele></trkpt><trkpt lat="57.511775" lon="12.481317"><ele>78.6</ele></trkpt><trkpt lat="57.511608" lon="12.480540"><ele>78.4</ele></trkpt><trkpt lat="57.511455" lon="12.479320"><ele>78.6</ele></trkpt><trkpt lat="57.511257" lon="12.478617"><ele>76.0</ele></trkpt><trkpt lat="57.510790" lon="12.477370"><ele>72.4</ele></trkpt><trkpt lat="57.510713" lon="12.476910"><ele>74.0</ele></trkpt><trkpt lat="57.510763" lon="12.476382"><ele>72.6</ele></trkpt><trkpt lat="57.511040" lon="12.475780"><ele>70.4</ele></trkpt><trkpt lat="57.511200" lon="12.475220"><ele>67.6</ele></trkpt><trkpt lat="57.511315" lon="12.473980"><ele>66.0</ele></trkpt><trkpt lat="57.511712" lon="12.473718"><ele>67.8</ele></trkpt><trkpt lat="57.511883" lon="12.473125"><ele>74.8</ele></trkpt><trkpt lat="57.511590" lon="12.472997"><ele>76.0</ele></trkpt><trkpt lat="57.511430" lon="12.472755"><ele>76.4</ele></trkpt><trkpt lat="57.511148" lon="12.472500"><ele>77.6</ele></trkpt><trkpt lat="57.510835" lon="12.472022"><ele>78.0</ele></trkpt><trkpt lat="57.510592" lon="12.471877"><ele>77.4</ele></trkpt><trkpt lat="57.510482" lon="12.471658"><ele>76.0</ele></trkpt><trkpt lat="57.510130" lon="12.471815"><ele>75.6</ele></trkpt><trkpt lat="57.509848" lon="12.471750"><ele>75.0</ele></trkpt><trkpt lat="57.509542" lon="12.471520"><ele>75.0</ele></trkpt><trkpt lat="57.509695" lon="12.470925"><ele>78.2</ele></trkpt><trkpt lat="57.510213" lon="12.470255"><ele>83.0</ele></trkpt><trkpt lat="57.510355" lon="12.469987"><ele>84.0</ele></trkpt><trkpt lat="57.510508" lon="12.469010"><ele>83.0</ele></trkpt><trkpt lat="57.510405" lon="12.468085"><ele>78.2</ele></trkpt><trkpt lat="57.510412" lon="12.466732"><ele>77.2</ele></trkpt><trkpt lat="57.510297" lon="12.466150"><ele>80.6</ele></trkpt><trkpt lat="57.510310" lon="12.465437"><ele>81.8</ele></trkpt><trkpt lat="57.510240" lon="12.465015"><ele>82.6</ele></trkpt><trkpt lat="57.510188" lon="12.463965"><ele>82.8</ele></trkpt><trkpt lat="57.510105" lon="12.463612"><ele>84.4</ele></trkpt><trkpt lat="57.510123" lon="12.462998"><ele>86.2</ele></trkpt><trkpt lat="57.510200" lon="12.462710"><ele>87.0</ele></trkpt><trkpt lat="57.510290" lon="12.462637"><ele>88.0</ele></trkpt><trkpt lat="57.510598" lon="12.462098"><ele>91.2</ele></trkpt><trkpt lat="57.510707" lon="12.462000"><ele>91.6</ele></trkpt><trkpt lat="57.510828" lon="12.462280"><ele>92.0</ele></trkpt><trkpt lat="57.511167" lon="12.462552"><ele>93.2</ele></trkpt><trkpt lat="57.511403" lon="12.462862"><ele>92.6</ele></trkpt><trkpt lat="57.511820" lon="12.462875"><ele>87.8</ele></trkpt><trkpt lat="57.512210" lon="12.462708"><ele>85.6</ele></trkpt><trkpt lat="57.512888" lon="12.463072"><ele>85.2</ele></trkpt><trkpt lat="57.513280" lon="12.463083"><ele>82.0</ele></trkpt><trkpt lat="57.513522" lon="12.463393"><ele>84.4</ele></trkpt><trkpt lat="57.513695" lon="12.463845"><ele>83.4</ele></trkpt><trkpt lat="57.514047" lon="12.463842"><ele>82.4</ele></trkpt><trkpt lat="57.514630" lon="12.464423"><ele>81.4</ele></trkpt><trkpt lat="57.514968" lon="12.465232"><ele>85.0</ele></trkpt><trkpt lat="57.515475" lon="12.465767"><ele>84.6</ele></trkpt><trkpt lat="57.515545" lon="12.465893"><ele>84.0</ele></trkpt><trkpt lat="57.515602" lon="12.466235"><ele>84.8</ele></trkpt><trkpt lat="57.515833" lon="12.466597"><ele>86.2</ele></trkpt><trkpt lat="57.515942" lon="12.466705"><ele>85.6</ele></trkpt><trkpt lat="57.516102" lon="12.466678"><ele>85.4</ele></trkpt><trkpt lat="57.516332" lon="12.466785"><ele>86.6</ele></trkpt><trkpt lat="57.516408" lon="12.467095"><ele>87.4</ele></trkpt><trkpt lat="57.516568" lon="12.467400"><ele>88.2</ele></trkpt><trkpt lat="57.516588" lon="12.467638"><ele>88.4</ele></trkpt><trkpt lat="57.516805" lon="12.467668"><ele>87.4</ele></trkpt><trkpt lat="57.516965" lon="12.467858"><ele>86.4</ele></trkpt><trkpt lat="57.517208" lon="12.467873"><ele>85.0</ele></trkpt><trkpt lat="57.517305" lon="12.467973"><ele>85.0</ele></trkpt><trkpt lat="57.517318" lon="12.468152"><ele>84.6</ele></trkpt><trkpt lat="57.517567" lon="12.468562"><ele>84.4</ele></trkpt><trkpt lat="57.517887" lon="12.468582"><ele>82.4</ele></trkpt><trkpt lat="57.518067" lon="12.468455"><ele>81.0</ele></trkpt><trkpt lat="57.518143" lon="12.468308"><ele>80.0</ele></trkpt><trkpt lat="57.518258" lon="12.468040"><ele>78.0</ele></trkpt><trkpt lat="57.518297" lon="12.467778"><ele>75.0</ele></trkpt><trkpt lat="57.518502" lon="12.467900"><ele>71.8</ele></trkpt><trkpt lat="57.518560" lon="12.467862"><ele>71.4</ele></trkpt><trkpt lat="57.519238" lon="12.466957"><ele>74.8</ele></trkpt><trkpt lat="57.519392" lon="12.466573"><ele>75.6</ele></trkpt><trkpt lat="57.519385" lon="12.466203"><ele>77.8</ele></trkpt><trkpt lat="57.519142" lon="12.465530"><ele>80.8</ele></trkpt><trkpt lat="57.518840" lon="12.464467"><ele>86.8</ele></trkpt><trkpt lat="57.518725" lon="12.463763"><ele>90.4</ele></trkpt><trkpt lat="57.518822" lon="12.463158"><ele>91.6</ele></trkpt><trkpt lat="57.519295" lon="12.462060"><ele>95.2</ele></trkpt><trkpt lat="57.519417" lon="12.461263"><ele>94.8</ele></trkpt><trkpt lat="57.519480" lon="12.461297"><ele>95.0</ele></trkpt><trkpt lat="57.519545" lon="12.461580"><ele>97.8</ele></trkpt><trkpt lat="57.520025" lon="12.462412"><ele>100.2</ele></trkpt><trkpt lat="57.520127" lon="12.462755"><ele>98.4</ele></trkpt><trkpt lat="57.520607" lon="12.463285"><ele>96.4</ele></trkpt><trkpt lat="57.520748" lon="12.463317"><ele>95.2</ele></trkpt><trkpt lat="57.520972" lon="12.463172"><ele>95.2</ele></trkpt><trkpt lat="57.521042" lon="12.463238"><ele>95.4</ele></trkpt><trkpt lat="57.521240" lon="12.463202"><ele>97.4</ele></trkpt><trkpt lat="57.521420" lon="12.463357"><ele>101.0</ele></trkpt><trkpt lat="57.521715" lon="12.463330"><ele>103.4</ele></trkpt><trkpt lat="57.522213" lon="12.463825"><ele>104.0</ele></trkpt><trkpt lat="57.522585" lon="12.464012"><ele>104.6</ele></trkpt><trkpt lat="57.522648" lon="12.463918"><ele>104.4</ele></trkpt><trkpt lat="57.522662" lon="12.463292"><ele>106.8</ele></trkpt><trkpt lat="57.522797" lon="12.463200"><ele>108.2</ele></trkpt><trkpt lat="57.523320" lon="12.463753"><ele>109.2</ele></trkpt><trkpt lat="57.523385" lon="12.464208"><ele>110.6</ele></trkpt><trkpt lat="57.523480" lon="12.464423"><ele>110.6</ele></trkpt><trkpt lat="57.523807" lon="12.464717"><ele>109.4</ele></trkpt><trkpt lat="57.523865" lon="12.463807"><ele>111.0</ele></trkpt><trkpt lat="57.524012" lon="12.463740"><ele>112.0</ele></trkpt><trkpt lat="57.524095" lon="12.463845"><ele>112.2</ele></trkpt><trkpt lat="57.524192" lon="12.463660"><ele>114.4</ele></trkpt><trkpt lat="57.524255" lon="12.462858"><ele>116.4</ele></trkpt><trkpt lat="57.524480" lon="12.462232"><ele>117.4</ele></trkpt><trkpt lat="57.524485" lon="12.461558"><ele>114.6</ele></trkpt><trkpt lat="57.524607" lon="12.461170"><ele>113.8</ele></trkpt><trkpt lat="57.524690" lon="12.460445"><ele>114.8</ele></trkpt><trkpt lat="57.524965" lon="12.459655"><ele>110.4</ele></trkpt><trkpt lat="57.524843" lon="12.458883"><ele>109.2</ele></trkpt><trkpt lat="57.524927" lon="12.458440"><ele>109.4</ele></trkpt><trkpt lat="57.524985" lon="12.458355"><ele>110.0</ele></trkpt><trkpt lat="57.525612" lon="12.458728"><ele>110.8</ele></trkpt><trkpt lat="57.525837" lon="12.458673"><ele>111.0</ele></trkpt><trkpt lat="57.526098" lon="12.459173"><ele>110.2</ele></trkpt><trkpt lat="57.526360" lon="12.459408"><ele>109.2</ele></trkpt><trkpt lat="57.526450" lon="12.459995"><ele>107.4</ele></trkpt><trkpt lat="57.526797" lon="12.460512"><ele>103.0</ele></trkpt><trkpt lat="57.526957" lon="12.461132"><ele>103.0</ele></trkpt><trkpt lat="57.527308" lon="12.461990"><ele>104.4</ele></trkpt><trkpt lat="57.527315" lon="12.462873"><ele>102.0</ele></trkpt><trkpt lat="57.527238" lon="12.463250"><ele>99.2</ele></trkpt><trkpt lat="57.527250" lon="12.463415"><ele>98.6</ele></trkpt><trkpt lat="57.527353" lon="12.463515"><ele>98.8</ele></trkpt><trkpt lat="57.527520" lon="12.463965"><ele>102.6</ele></trkpt><trkpt lat="57.527750" lon="12.464245"><ele>102.6</ele></trkpt><trkpt lat="57.527987" lon="12.464678"><ele>102.8</ele></trkpt><trkpt lat="57.528032" lon="12.464920"><ele>103.0</ele></trkpt><trkpt lat="57.528268" lon="12.465437"><ele>103.8</ele></trkpt><trkpt lat="57.528230" lon="12.465468"><ele>104.4</ele></trkpt><trkpt lat="57.528210" lon="12.466140"><ele>108.6</ele></trkpt><trkpt lat="57.528440" lon="12.466777"><ele>110.2</ele></trkpt><trkpt lat="57.528908" lon="12.467512"><ele>109.4</ele></trkpt><trkpt lat="57.529183" lon="12.468112"><ele>107.2</ele></trkpt><trkpt lat="57.529298" lon="12.469080"><ele>101.4</ele></trkpt><trkpt lat="57.529235" lon="12.469255"><ele>99.2</ele></trkpt><trkpt lat="57.529267" lon="12.469743"><ele>99.6</ele></trkpt><trkpt lat="57.529350" lon="12.470215"><ele>99.8</ele></trkpt><trkpt lat="57.529483" lon="12.470533"><ele>99.6</ele></trkpt><trkpt lat="57.529483" lon="12.470853"><ele>98.8</ele></trkpt><trkpt lat="57.529560" lon="12.470952"><ele>98.8</ele></trkpt><trkpt lat="57.529720" lon="12.471533"><ele>97.6</ele></trkpt><trkpt lat="57.530233" lon="12.472107"><ele>97.6</ele></trkpt><trkpt lat="57.530565" lon="12.472695"><ele>96.0</ele></trkpt><trkpt lat="57.530373" lon="12.473027"><ele>95.6</ele></trkpt><trkpt lat="57.530310" lon="12.473423"><ele>94.6</ele></trkpt><trkpt lat="57.530457" lon="12.474308"><ele>97.2</ele></trkpt><trkpt lat="57.530495" lon="12.475172"><ele>102.4</ele></trkpt><trkpt lat="57.531468" lon="12.477157"><ele>107.2</ele></trkpt><trkpt lat="57.531858" lon="12.478378"><ele>106.8</ele></trkpt><trkpt lat="57.531840" lon="12.478828"><ele>105.4</ele></trkpt><trkpt lat="57.532025" lon="12.479100"><ele>102.2</ele></trkpt><trkpt lat="57.532358" lon="12.480120"><ele>97.8</ele></trkpt><trkpt lat="57.532805" lon="12.480997"><ele>97.8</ele></trkpt><trkpt lat="57.533663" lon="12.481928"><ele>99.6</ele></trkpt><trkpt lat="57.533925" lon="12.482583"><ele>97.6</ele></trkpt><trkpt lat="57.534258" lon="12.483168"><ele>94.0</ele></trkpt><trkpt lat="57.535065" lon="12.483732"><ele>83.4</ele></trkpt><trkpt lat="57.535712" lon="12.484047"><ele>76.4</ele></trkpt><trkpt lat="57.536095" lon="12.484423"><ele>72.6</ele></trkpt><trkpt lat="57.536313" lon="12.484780"><ele>68.8</ele></trkpt><trkpt lat="57.536658" lon="12.485933"><ele>61.8</ele></trkpt><trkpt lat="57.536832" lon="12.486172"><ele>61.4</ele></trkpt><trkpt lat="57.536965" lon="12.486227"><ele>59.6</ele></trkpt><trkpt lat="57.537573" lon="12.486093"><ele>59.4</ele></trkpt><trkpt lat="57.538220" lon="12.485507"><ele>60.8</ele></trkpt><trkpt lat="57.539263" lon="12.484965"><ele>61.6</ele></trkpt><trkpt lat="57.539718" lon="12.484575"><ele>63.2</ele></trkpt><trkpt lat="57.540005" lon="12.484468"><ele>61.6</ele></trkpt><trkpt lat="57.540613" lon="12.484590"><ele>61.4</ele></trkpt><trkpt lat="57.541062" lon="12.484453"><ele>59.6</ele></trkpt><trkpt lat="57.541125" lon="12.484523"><ele>59.6</ele></trkpt><trkpt lat="57.541208" lon="12.484945"><ele>59.4</ele></trkpt><trkpt lat="57.541298" lon="12.484977"><ele>59.4</ele></trkpt><trkpt lat="57.542047" lon="12.484550"><ele>58.6</ele></trkpt><trkpt lat="57.542355" lon="12.484460"><ele>59.8</ele></trkpt><trkpt lat="57.543827" lon="12.483532"><ele>61.0</ele></trkpt><trkpt lat="57.543960" lon="12.483382"><ele>60.8</ele></trkpt><trkpt lat="57.544178" lon="12.482952"><ele>59.6</ele></trkpt><trkpt lat="57.544773" lon="12.481560"><ele>53.2</ele></trkpt><trkpt lat="57.545107" lon="12.481317"><ele>50.6</ele></trkpt><trkpt lat="57.545362" lon="12.480953"><ele>47.2</ele></trkpt><trkpt lat="57.546137" lon="12.478660"><ele>42.2</ele></trkpt><trkpt lat="57.546425" lon="12.478437"><ele>40.2</ele></trkpt><trkpt lat="57.546930" lon="12.478290"><ele>42.4</ele></trkpt><trkpt lat="57.547635" lon="12.477127"><ele>51.4</ele></trkpt><trkpt lat="57.547942" lon="12.477132"><ele>55.0</ele></trkpt><trkpt lat="57.548005" lon="12.477067"><ele>55.6</ele></trkpt><trkpt lat="57.548262" lon="12.476467"><ele>58.0</ele></trkpt><trkpt lat="57.548562" lon="12.476037"><ele>59.2</ele></trkpt><trkpt lat="57.549183" lon="12.475718"><ele>66.2</ele></trkpt><trkpt lat="57.549510" lon="12.475350"><ele>70.2</ele></trkpt><trkpt lat="57.549925" lon="12.475408"><ele>74.8</ele></trkpt><trkpt lat="57.550098" lon="12.475242"><ele>76.0</ele></trkpt><trkpt lat="57.550400" lon="12.475112"><ele>79.0</ele></trkpt><trkpt lat="57.550758" lon="12.475165"><ele>79.4</ele></trkpt><trkpt lat="57.551423" lon="12.474868"><ele>79.4</ele></trkpt><trkpt lat="57.551602" lon="12.474625"><ele>81.2</ele></trkpt><trkpt lat="57.551883" lon="12.474398"><ele>82.2</ele></trkpt><trkpt lat="57.552780" lon="12.473983"><ele>80.0</ele></trkpt><trkpt lat="57.553330" lon="12.473527"><ele>82.6</ele></trkpt><trkpt lat="57.553747" lon="12.473315"><ele>83.4</ele></trkpt><trkpt lat="57.553702" lon="12.473125"><ele>83.8</ele></trkpt><trkpt lat="57.553733" lon="12.472973"><ele>83.4</ele></trkpt><trkpt lat="57.554080" lon="12.472683"><ele>82.2</ele></trkpt><trkpt lat="57.554373" lon="12.471935"><ele>83.6</ele></trkpt><trkpt lat="57.554443" lon="12.470965"><ele>82.0</ele></trkpt><trkpt lat="57.554317" lon="12.470570"><ele>85.6</ele></trkpt><trkpt lat="57.554425" lon="12.470192"><ele>83.8</ele></trkpt><trkpt lat="57.554387" lon="12.470002"><ele>83.2</ele></trkpt><trkpt lat="57.554322" lon="12.470038"><ele>83.4</ele></trkpt><trkpt lat="57.554303" lon="12.469983"><ele>84.0</ele></trkpt><trkpt lat="57.554258" lon="12.469360"><ele>90.0</ele></trkpt><trkpt lat="57.554405" lon="12.468425"><ele>94.4</ele></trkpt><trkpt lat="57.554578" lon="12.467708"><ele>92.6</ele></trkpt><trkpt lat="57.554662" lon="12.466827"><ele>91.4</ele></trkpt><trkpt lat="57.554655" lon="12.466645"><ele>90.6</ele></trkpt><trkpt lat="57.554495" lon="12.466330"><ele>89.2</ele></trkpt><trkpt lat="57.554367" lon="12.465800"><ele>86.8</ele></trkpt><trkpt lat="57.554470" lon="12.464677"><ele>86.0</ele></trkpt><trkpt lat="57.554457" lon="12.464255"><ele>85.4</ele></trkpt><trkpt lat="57.554053" lon="12.462438"><ele>84.0</ele></trkpt><trkpt lat="57.554015" lon="12.462063"><ele>84.2</ele></trkpt><trkpt lat="57.554168" lon="12.461310"><ele>81.6</ele></trkpt><trkpt lat="57.554802" lon="12.460457"><ele>85.8</ele></trkpt><trkpt lat="57.554930" lon="12.459983"><ele>83.8</ele></trkpt><trkpt lat="57.554783" lon="12.459492"><ele>82.4</ele></trkpt><trkpt lat="57.554617" lon="12.459197"><ele>82.4</ele></trkpt><trkpt lat="57.553887" lon="12.459223"><ele>85.6</ele></trkpt><trkpt lat="57.553810" lon="12.459160"><ele>85.6</ele></trkpt><trkpt lat="57.553740" lon="12.458972"><ele>86.2</ele></trkpt><trkpt lat="57.553567" lon="12.458840"><ele>86.4</ele></trkpt><trkpt lat="57.553318" lon="12.458277"><ele>88.6</ele></trkpt><trkpt lat="57.552793" lon="12.458320"><ele>91.2</ele></trkpt><trkpt lat="57.552678" lon="12.458140"><ele>92.0</ele></trkpt><trkpt lat="57.552595" lon="12.457798"><ele>92.8</ele></trkpt><trkpt lat="57.552473" lon="12.457707"><ele>93.6</ele></trkpt><trkpt lat="57.552293" lon="12.457240"><ele>94.0</ele></trkpt><trkpt lat="57.552005" lon="12.456830"><ele>94.8</ele></trkpt><trkpt lat="57.551205" lon="12.456510"><ele>90.6</ele></trkpt><trkpt lat="57.550808" lon="12.456500"><ele>90.4</ele></trkpt><trkpt lat="57.550637" lon="12.456165"><ele>89.2</ele></trkpt><trkpt lat="57.550470" lon="12.456047"><ele>88.8</ele></trkpt><trkpt lat="57.550335" lon="12.455845"><ele>88.4</ele></trkpt><trkpt lat="57.550150" lon="12.455328"><ele>90.6</ele></trkpt><trkpt lat="57.549638" lon="12.454240"><ele>91.8</ele></trkpt><trkpt lat="57.548717" lon="12.453325"><ele>90.4</ele></trkpt><trkpt lat="57.548447" lon="12.452657"><ele>86.6</ele></trkpt><trkpt lat="57.548268" lon="12.452468"><ele>83.8</ele></trkpt><trkpt lat="57.548223" lon="12.452198"><ele>85.8</ele></trkpt><trkpt lat="57.547967" lon="12.451867"><ele>90.0</ele></trkpt><trkpt lat="57.547840" lon="12.451932"><ele>90.6</ele></trkpt><trkpt lat="57.547660" lon="12.451880"><ele>92.6</ele></trkpt><trkpt lat="57.547417" lon="12.452268"><ele>91.0</ele></trkpt><trkpt lat="57.546822" lon="12.452225"><ele>87.2</ele></trkpt><trkpt lat="57.546412" lon="12.452543"><ele>86.8</ele></trkpt><trkpt lat="57.546317" lon="12.452513"><ele>87.8</ele></trkpt><trkpt lat="57.545938" lon="12.452680"><ele>89.6</ele></trkpt><trkpt lat="57.545670" lon="12.452637"><ele>88.6</ele></trkpt><trkpt lat="57.545215" lon="12.452988"><ele>87.6</ele></trkpt><trkpt lat="57.545048" lon="12.452917"><ele>87.8</ele></trkpt><trkpt lat="57.544870" lon="12.452423"><ele>86.2</ele></trkpt><trkpt lat="57.544645" lon="12.452243"><ele>82.2</ele></trkpt><trkpt lat="57.544300" lon="12.452160"><ele>77.0</ele></trkpt><trkpt lat="57.543910" lon="12.452395"><ele>74.2</ele></trkpt><trkpt lat="57.543782" lon="12.452283"><ele>73.8</ele></trkpt><trkpt lat="57.543718" lon="12.452090"><ele>73.4</ele></trkpt><trkpt lat="57.543897" lon="12.451635"><ele>73.0</ele></trkpt><trkpt lat="57.544102" lon="12.450740"><ele>73.2</ele></trkpt><trkpt lat="57.544140" lon="12.450753"><ele>73.2</ele></trkpt><trkpt lat="57.544198" lon="12.450322"><ele>73.6</ele></trkpt><trkpt lat="57.544313" lon="12.450263"><ele>73.6</ele></trkpt><trkpt lat="57.544332" lon="12.450117"><ele>74.0</ele></trkpt><trkpt lat="57.544550" lon="12.449760"><ele>75.8</ele></trkpt><trkpt lat="57.544575" lon="12.449513"><ele>76.8</ele></trkpt><trkpt lat="57.544767" lon="12.449252"><ele>77.4</ele></trkpt><trkpt lat="57.544703" lon="12.449140"><ele>77.6</ele></trkpt><trkpt lat="57.545023" lon="12.449323"><ele>77.0</ele></trkpt><trkpt lat="57.545298" lon="12.449292"><ele>79.6</ele></trkpt><trkpt lat="57.545670" lon="12.449087"><ele>83.4</ele></trkpt><trkpt lat="57.545772" lon="12.448892"><ele>84.6</ele></trkpt><trkpt lat="57.545810" lon="12.448710"><ele>85.6</ele></trkpt><trkpt lat="57.545778" lon="12.448708"><ele>85.6</ele></trkpt><trkpt lat="57.545848" lon="12.448540"><ele>86.0</ele></trkpt><trkpt lat="57.546080" lon="12.448313"><ele>81.4</ele></trkpt><trkpt lat="57.546137" lon="12.448108"><ele>80.0</ele></trkpt><trkpt lat="57.546380" lon="12.447698"><ele>76.6</ele></trkpt><trkpt lat="57.546572" lon="12.447040"><ele>74.4</ele></trkpt><trkpt lat="57.546662" lon="12.446630"><ele>74.6</ele></trkpt><trkpt lat="57.546623" lon="12.446455"><ele>74.4</ele></trkpt><trkpt lat="57.546265" lon="12.446072"><ele>79.8</ele></trkpt><trkpt lat="57.546188" lon="12.445830"><ele>83.0</ele></trkpt><trkpt lat="57.546175" lon="12.445587"><ele>83.0</ele></trkpt><trkpt lat="57.546220" lon="12.445453"><ele>84.4</ele></trkpt><trkpt lat="57.546655" lon="12.445290"><ele>86.0</ele></trkpt><trkpt lat="57.546527" lon="12.444905"><ele>86.2</ele></trkpt><trkpt lat="57.546610" lon="12.444430"><ele>86.6</ele></trkpt><trkpt lat="57.546603" lon="12.444060"><ele>85.6</ele></trkpt><trkpt lat="57.546182" lon="12.443028"><ele>84.6</ele></trkpt><trkpt lat="57.545983" lon="12.442693"><ele>81.8</ele></trkpt><trkpt lat="57.546118" lon="12.442280"><ele>78.4</ele></trkpt><trkpt lat="57.546188" lon="12.441873"><ele>77.6</ele></trkpt><trkpt lat="57.545727" lon="12.441590"><ele>76.0</ele></trkpt><trkpt lat="57.545253" lon="12.441003"><ele>71.4</ele></trkpt><trkpt lat="57.544307" lon="12.439247"><ele>60.0</ele></trkpt><trkpt lat="57.544217" lon="12.438982"><ele>59.6</ele></trkpt><trkpt lat="57.544397" lon="12.438378"><ele>61.2</ele></trkpt><trkpt lat="57.544287" lon="12.437777"><ele>65.4</ele></trkpt><trkpt lat="57.543737" lon="12.437345"><ele>68.4</ele></trkpt><trkpt lat="57.543295" lon="12.437267"><ele>65.0</ele></trkpt><trkpt lat="57.543167" lon="12.437335"><ele>64.2</ele></trkpt><trkpt lat="57.543072" lon="12.437272"><ele>63.0</ele></trkpt><trkpt lat="57.542797" lon="12.436143"><ele>58.4</ele></trkpt><trkpt lat="57.542732" lon="12.435687"><ele>54.8</ele></trkpt><trkpt lat="57.542752" lon="12.434768"><ele>51.2</ele></trkpt><trkpt lat="57.542693" lon="12.434400"><ele>50.2</ele></trkpt><trkpt lat="57.542687" lon="12.433620"><ele>47.4</ele></trkpt><trkpt lat="57.542648" lon="12.433398"><ele>47.2</ele></trkpt><trkpt lat="57.541970" lon="12.433448"><ele>47.6</ele></trkpt><trkpt lat="57.541817" lon="12.433528"><ele>47.4</ele></trkpt><trkpt lat="57.540832" lon="12.434505"><ele>46.4</ele></trkpt><trkpt lat="57.540383" lon="12.434522"><ele>45.8</ele></trkpt><trkpt lat="57.540262" lon="12.434638"><ele>44.4</ele></trkpt><trkpt lat="57.539948" lon="12.434660"><ele>46.0</ele></trkpt><trkpt lat="57.539723" lon="12.435025"><ele>45.2</ele></trkpt><trkpt lat="57.539410" lon="12.435357"><ele>46.2</ele></trkpt><trkpt lat="57.539333" lon="12.434972"><ele>43.0</ele></trkpt><trkpt lat="57.539365" lon="12.434597"><ele>37.4</ele></trkpt><trkpt lat="57.539333" lon="12.434378"><ele>34.4</ele></trkpt><trkpt lat="57.539160" lon="12.434300"><ele>31.4</ele></trkpt><trkpt lat="57.539007" lon="12.434128"><ele>31.4</ele></trkpt><trkpt lat="57.538777" lon="12.434140"><ele>29.4</ele></trkpt><trkpt lat="57.538630" lon="12.434060"><ele>29.6</ele></trkpt><trkpt lat="57.538335" lon="12.433700"><ele>29.2</ele></trkpt><trkpt lat="57.538342" lon="12.433423"><ele>29.0</ele></trkpt><trkpt lat="57.538457" lon="12.433105"><ele>28.4</ele></trkpt><trkpt lat="57.539027" lon="12.432625"><ele>29.0</ele></trkpt><trkpt lat="57.539315" lon="12.432245"><ele>28.6</ele></trkpt><trkpt lat="57.539513" lon="12.431797"><ele>29.0</ele></trkpt><trkpt lat="57.539685" lon="12.431193"><ele>28.6</ele></trkpt><trkpt lat="57.539840" lon="12.430952"><ele>28.0</ele></trkpt><trkpt lat="57.540000" lon="12.430488"><ele>27.8</ele></trkpt><trkpt lat="57.540185" lon="12.429860"><ele>28.2</ele></trkpt><trkpt lat="57.540165" lon="12.429037"><ele>25.8</ele></trkpt><trkpt lat="57.540383" lon="12.427595"><ele>18.4</ele></trkpt><trkpt lat="57.540877" lon="12.427227"><ele>17.6</ele></trkpt><trkpt lat="57.541197" lon="12.427122"><ele>17.6</ele></trkpt><trkpt lat="57.541990" lon="12.427208"><ele>18.4</ele></trkpt><trkpt lat="57.542380" lon="12.427337"><ele>18.0</ele></trkpt><trkpt lat="57.542502" lon="12.427280"><ele>18.6</ele></trkpt><trkpt lat="57.542533" lon="12.425900"><ele>16.4</ele></trkpt><trkpt lat="57.542662" lon="12.425272"><ele>15.8</ele></trkpt><trkpt lat="57.542668" lon="12.423915"><ele>16.6</ele></trkpt><trkpt lat="57.542720" lon="12.423172"><ele>15.8</ele></trkpt><trkpt lat="57.543205" lon="12.421473"><ele>14.2</ele></trkpt><trkpt lat="57.543327" lon="12.421255"><ele>13.8</ele></trkpt><trkpt lat="57.543525" lon="12.420668"><ele>13.8</ele></trkpt><trkpt lat="57.544088" lon="12.419533"><ele>15.8</ele></trkpt><trkpt lat="57.544275" lon="12.418032"><ele>17.2</ele></trkpt><trkpt lat="57.544320" lon="12.417203"><ele>17.8</ele></trkpt><trkpt lat="57.544242" lon="12.416890"><ele>19.8</ele></trkpt><trkpt lat="57.544088" lon="12.416727"><ele>22.8</ele></trkpt><trkpt lat="57.543840" lon="12.416633"><ele>27.2</ele></trkpt><trkpt lat="57.543437" lon="12.416332"><ele>30.6</ele></trkpt><trkpt lat="57.542598" lon="12.416012"><ele>32.2</ele></trkpt><trkpt lat="57.542418" lon="12.415675"><ele>37.0</ele></trkpt><trkpt lat="57.542412" lon="12.415162"><ele>42.0</ele></trkpt><trkpt lat="57.542482" lon="12.414772"><ele>45.6</ele></trkpt><trkpt lat="57.542642" lon="12.414410"><ele>48.4</ele></trkpt><trkpt lat="57.543442" lon="12.414210"><ele>53.6</ele></trkpt><trkpt lat="57.543743" lon="12.414060"><ele>54.0</ele></trkpt><trkpt lat="57.543993" lon="12.413613"><ele>53.6</ele></trkpt><trkpt lat="57.544043" lon="12.413298"><ele>55.0</ele></trkpt><trkpt lat="57.543883" lon="12.412462"><ele>62.8</ele></trkpt><trkpt lat="57.543942" lon="12.412263"><ele>64.6</ele></trkpt><trkpt lat="57.544070" lon="12.412153"><ele>67.2</ele></trkpt><trkpt lat="57.544210" lon="12.411872"><ele>69.0</ele></trkpt><trkpt lat="57.544237" lon="12.411300"><ele>73.0</ele></trkpt><trkpt lat="57.544198" lon="12.411170"><ele>73.6</ele></trkpt><trkpt lat="57.543942" lon="12.410998"><ele>74.4</ele></trkpt><trkpt lat="57.543820" lon="12.410793"><ele>74.2</ele></trkpt><trkpt lat="57.543820" lon="12.410670"><ele>73.6</ele></trkpt><trkpt lat="57.543935" lon="12.410332"><ele>75.0</ele></trkpt><trkpt lat="57.543922" lon="12.409950"><ele>76.8</ele></trkpt><trkpt lat="57.543442" lon="12.409523"><ele>79.2</ele></trkpt><trkpt lat="57.542918" lon="12.409667"><ele>81.6</ele></trkpt><trkpt lat="57.542662" lon="12.409657"><ele>81.6</ele></trkpt><trkpt lat="57.542317" lon="12.409563"><ele>81.6</ele></trkpt><trkpt lat="57.542015" lon="12.409360"><ele>82.6</ele></trkpt><trkpt lat="57.541100" lon="12.409127"><ele>83.2</ele></trkpt><trkpt lat="57.540300" lon="12.408155"><ele>86.4</ele></trkpt><trkpt lat="57.539660" lon="12.407580"><ele>86.8</ele></trkpt><trkpt lat="57.539525" lon="12.407578"><ele>87.0</ele></trkpt><trkpt lat="57.539225" lon="12.407775"><ele>86.4</ele></trkpt><trkpt lat="57.538962" lon="12.407850"><ele>87.2</ele></trkpt><trkpt lat="57.538515" lon="12.407792"><ele>87.4</ele></trkpt><trkpt lat="57.538373" lon="12.407443"><ele>85.2</ele></trkpt><trkpt lat="57.538258" lon="12.407330"><ele>85.8</ele></trkpt><trkpt lat="57.537932" lon="12.407305"><ele>84.6</ele></trkpt><trkpt lat="57.537625" lon="12.407078"><ele>85.0</ele></trkpt><trkpt lat="57.536895" lon="12.406147"><ele>89.4</ele></trkpt><trkpt lat="57.536203" lon="12.405930"><ele>91.2</ele></trkpt><trkpt lat="57.534790" lon="12.404158"><ele>90.2</ele></trkpt><trkpt lat="57.534008" lon="12.403565"><ele>93.6</ele></trkpt><trkpt lat="57.533593" lon="12.403105"><ele>92.2</ele></trkpt><trkpt lat="57.532658" lon="12.402535"><ele>92.2</ele></trkpt><trkpt lat="57.532440" lon="12.402250"><ele>91.6</ele></trkpt><trkpt lat="57.532057" lon="12.401213"><ele>88.6</ele></trkpt><trkpt lat="57.531615" lon="12.400845"><ele>90.6</ele></trkpt><trkpt lat="57.531277" lon="12.400830"><ele>93.0</ele></trkpt><trkpt lat="57.530815" lon="12.401018"><ele>93.6</ele></trkpt><trkpt lat="57.530527" lon="12.400970"><ele>94.0</ele></trkpt><trkpt lat="57.529715" lon="12.401088"><ele>92.6</ele></trkpt><trkpt lat="57.529280" lon="12.401062"><ele>91.4</ele></trkpt><trkpt lat="57.528825" lon="12.400860"><ele>91.8</ele></trkpt><trkpt lat="57.528600" lon="12.400852"><ele>92.6</ele></trkpt><trkpt lat="57.528408" lon="12.400943"><ele>91.8</ele></trkpt><trkpt lat="57.528133" lon="12.401212"><ele>90.4</ele></trkpt><trkpt lat="57.527705" lon="12.400177"><ele>90.6</ele></trkpt><trkpt lat="57.527090" lon="12.399375"><ele>93.4</ele></trkpt><trkpt lat="57.526943" lon="12.399650"><ele>93.4</ele></trkpt><trkpt lat="57.526912" lon="12.399847"><ele>93.4</ele></trkpt><trkpt lat="57.526745" lon="12.400123"><ele>94.8</ele></trkpt><trkpt lat="57.526617" lon="12.400597"><ele>95.4</ele></trkpt><trkpt lat="57.526367" lon="12.400938"><ele>93.6</ele></trkpt><trkpt lat="57.526067" lon="12.401517"><ele>93.6</ele></trkpt><trkpt lat="57.525618" lon="12.401668"><ele>96.4</ele></trkpt><trkpt lat="57.525215" lon="12.401547"><ele>96.4</ele></trkpt><trkpt lat="57.524742" lon="12.402097"><ele>95.4</ele></trkpt><trkpt lat="57.524480" lon="12.402303"><ele>95.0</ele></trkpt><trkpt lat="57.524223" lon="12.402380"><ele>95.6</ele></trkpt><trkpt lat="57.524203" lon="12.402297"><ele>95.8</ele></trkpt><trkpt lat="57.524057" lon="12.402227"><ele>96.0</ele></trkpt><trkpt lat="57.523865" lon="12.402250"><ele>95.2</ele></trkpt><trkpt lat="57.523845" lon="12.402573"><ele>91.2</ele></trkpt><trkpt lat="57.523795" lon="12.402658"><ele>90.6</ele></trkpt><trkpt lat="57.523270" lon="12.402935"><ele>85.6</ele></trkpt><trkpt lat="57.522982" lon="12.402960"><ele>83.2</ele></trkpt><trkpt lat="57.522783" lon="12.402683"><ele>82.4</ele></trkpt><trkpt lat="57.521542" lon="12.401680"><ele>86.8</ele></trkpt><trkpt lat="57.521323" lon="12.401313"><ele>88.6</ele></trkpt><trkpt lat="57.521228" lon="12.401000"><ele>88.8</ele></trkpt><trkpt lat="57.521093" lon="12.400860"><ele>89.2</ele></trkpt><trkpt lat="57.520742" lon="12.400787"><ele>87.8</ele></trkpt><trkpt lat="57.520537" lon="12.400638"><ele>86.0</ele></trkpt><trkpt lat="57.520063" lon="12.400067"><ele>84.2</ele></trkpt><trkpt lat="57.519980" lon="12.399883"><ele>82.8</ele></trkpt><trkpt lat="57.519493" lon="12.399557"><ele>82.4</ele></trkpt><trkpt lat="57.519257" lon="12.399322"><ele>82.2</ele></trkpt><trkpt lat="57.519135" lon="12.399067"><ele>82.0</ele></trkpt><trkpt lat="57.518477" lon="12.398498"><ele>83.6</ele></trkpt><trkpt lat="57.518265" lon="12.398202"><ele>86.4</ele></trkpt><trkpt lat="57.517868" lon="12.397917"><ele>86.0</ele></trkpt><trkpt lat="57.517625" lon="12.397415"><ele>85.2</ele></trkpt><trkpt lat="57.516978" lon="12.396758"><ele>82.6</ele></trkpt><trkpt lat="57.516690" lon="12.396532"><ele>81.6</ele></trkpt><trkpt lat="57.516178" lon="12.396367"><ele>81.2</ele></trkpt><trkpt lat="57.516050" lon="12.396100"><ele>82.6</ele></trkpt><trkpt lat="57.515955" lon="12.395668"><ele>83.6</ele></trkpt><trkpt lat="57.515698" lon="12.395145"><ele>83.0</ele></trkpt><trkpt lat="57.515398" lon="12.394708"><ele>82.6</ele></trkpt><trkpt lat="57.515135" lon="12.394042"><ele>85.8</ele></trkpt><trkpt lat="57.514802" lon="12.393480"><ele>86.6</ele></trkpt><trkpt lat="57.514168" lon="12.391723"><ele>83.0</ele></trkpt><trkpt lat="57.514092" lon="12.391420"><ele>81.4</ele></trkpt><trkpt lat="57.514067" lon="12.391000"><ele>79.2</ele></trkpt><trkpt lat="57.513893" lon="12.390195"><ele>75.2</ele></trkpt><trkpt lat="57.513983" lon="12.389815"><ele>74.6</ele></trkpt><trkpt lat="57.513970" lon="12.389500"><ele>73.6</ele></trkpt><trkpt lat="57.513632" lon="12.388722"><ele>74.2</ele></trkpt><trkpt lat="57.513478" lon="12.388495"><ele>75.6</ele></trkpt><trkpt lat="57.513273" lon="12.387937"><ele>77.2</ele></trkpt><trkpt lat="57.512850" lon="12.387358"><ele>77.6</ele></trkpt><trkpt lat="57.512530" lon="12.386630"><ele>74.4</ele></trkpt><trkpt lat="57.512440" lon="12.386255"><ele>75.4</ele></trkpt><trkpt lat="57.512217" lon="12.385733"><ele>80.2</ele></trkpt><trkpt lat="57.511967" lon="12.385395"><ele>81.6</ele></trkpt><trkpt lat="57.511903" lon="12.385108"><ele>83.4</ele></trkpt><trkpt lat="57.511935" lon="12.385242"><ele>83.8</ele></trkpt><trkpt lat="57.511897" lon="12.385390"><ele>83.4</ele></trkpt><trkpt lat="57.511730" lon="12.385533"><ele>84.0</ele></trkpt><trkpt lat="57.511487" lon="12.385925"><ele>82.6</ele></trkpt><trkpt lat="57.510995" lon="12.386032"><ele>79.6</ele></trkpt><trkpt lat="57.511045" lon="12.386193"><ele>76.6</ele></trkpt><trkpt lat="57.510707" lon="12.386900"><ele>68.4</ele></trkpt><trkpt lat="57.510648" lon="12.387338"><ele>67.4</ele></trkpt><trkpt lat="57.510693" lon="12.387747"><ele>67.2</ele></trkpt><trkpt lat="57.510630" lon="12.387728"><ele>67.0</ele></trkpt><trkpt lat="57.510693" lon="12.387655"><ele>67.4</ele></trkpt><trkpt lat="57.510790" lon="12.387700"><ele>67.6</ele></trkpt><trkpt lat="57.511027" lon="12.388080"><ele>68.0</ele></trkpt><trkpt lat="57.511072" lon="12.388240"><ele>68.6</ele></trkpt><trkpt lat="57.511052" lon="12.388415"><ele>69.4</ele></trkpt><trkpt lat="57.510937" lon="12.388578"><ele>69.2</ele></trkpt><trkpt lat="57.511072" lon="12.389168"><ele>71.6</ele></trkpt><trkpt lat="57.511090" lon="12.389855"><ele>70.8</ele></trkpt><trkpt lat="57.511173" lon="12.390167"><ele>69.6</ele></trkpt><trkpt lat="57.511347" lon="12.390502"><ele>68.2</ele></trkpt><trkpt lat="57.511270" lon="12.390760"><ele>67.8</ele></trkpt><trkpt lat="57.511347" lon="12.390838"><ele>67.2</ele></trkpt><trkpt lat="57.511385" lon="12.391017"><ele>66.6</ele></trkpt><trkpt lat="57.511513" lon="12.391120"><ele>65.8</ele></trkpt><trkpt lat="57.511678" lon="12.391840"><ele>57.6</ele></trkpt><trkpt lat="57.511660" lon="12.391953"><ele>57.2</ele></trkpt><trkpt lat="57.512005" lon="12.392443"><ele>65.2</ele></trkpt><trkpt lat="57.512043" lon="12.392787"><ele>65.0</ele></trkpt><trkpt lat="57.512280" lon="12.393560"><ele>62.0</ele></trkpt><trkpt lat="57.512537" lon="12.393943"><ele>58.8</ele></trkpt><trkpt lat="57.512505" lon="12.394095"><ele>57.6</ele></trkpt><trkpt lat="57.512562" lon="12.394390"><ele>54.6</ele></trkpt><trkpt lat="57.512665" lon="12.394608"><ele>53.2</ele></trkpt><trkpt lat="57.512665" lon="12.394920"><ele>54.4</ele></trkpt><trkpt lat="57.512773" lon="12.395430"><ele>56.6</ele></trkpt><trkpt lat="57.512863" lon="12.395700"><ele>57.0</ele></trkpt><trkpt lat="57.513222" lon="12.395800"><ele>56.2</ele></trkpt><trkpt lat="57.513407" lon="12.396102"><ele>54.6</ele></trkpt><trkpt lat="57.513395" lon="12.396535"><ele>53.2</ele></trkpt><trkpt lat="57.513567" lon="12.396912"><ele>52.2</ele></trkpt><trkpt lat="57.513535" lon="12.397138"><ele>51.2</ele></trkpt><trkpt lat="57.513567" lon="12.397205"><ele>50.6</ele></trkpt><trkpt lat="57.513388" lon="12.397600"><ele>48.6</ele></trkpt><trkpt lat="57.513445" lon="12.397800"><ele>49.4</ele></trkpt><trkpt lat="57.513555" lon="12.397880"><ele>51.0</ele></trkpt><trkpt lat="57.513765" lon="12.397840"><ele>51.6</ele></trkpt><trkpt lat="57.513792" lon="12.397907"><ele>51.8</ele></trkpt><trkpt lat="57.513733" lon="12.398185"><ele>52.4</ele></trkpt><trkpt lat="57.513830" lon="12.398377"><ele>53.2</ele></trkpt><trkpt lat="57.513932" lon="12.398402"><ele>52.4</ele></trkpt><trkpt lat="57.514008" lon="12.398288"><ele>51.2</ele></trkpt><trkpt lat="57.514150" lon="12.398315"><ele>48.0</ele></trkpt><trkpt lat="57.514258" lon="12.398820"><ele>45.0</ele></trkpt><trkpt lat="57.514373" lon="12.399033"><ele>45.6</ele></trkpt><trkpt lat="57.514700" lon="12.399018"><ele>44.6</ele></trkpt><trkpt lat="57.515110" lon="12.399898"><ele>46.8</ele></trkpt><trkpt lat="57.515807" lon="12.400710"><ele>52.8</ele></trkpt><trkpt lat="57.516108" lon="12.400877"><ele>53.4</ele></trkpt><trkpt lat="57.516217" lon="12.401192"><ele>55.2</ele></trkpt><trkpt lat="57.516338" lon="12.401332"><ele>55.6</ele></trkpt><trkpt lat="57.516760" lon="12.401552"><ele>54.0</ele></trkpt><trkpt lat="57.516787" lon="12.401715"><ele>51.6</ele></trkpt><trkpt lat="57.516888" lon="12.401877"><ele>45.6</ele></trkpt><trkpt lat="57.517395" lon="12.402370"><ele>30.4</ele></trkpt><trkpt lat="57.517542" lon="12.402782"><ele>23.6</ele></trkpt><trkpt lat="57.517560" lon="12.403013"><ele>20.2</ele></trkpt><trkpt lat="57.517657" lon="12.403178"><ele>16.4</ele></trkpt><trkpt lat="57.517503" lon="12.403592"><ele>13.4</ele></trkpt><trkpt lat="57.517483" lon="12.404020"><ele>12.0</ele></trkpt><trkpt lat="57.517535" lon="12.404170"><ele>12.6</ele></trkpt><trkpt lat="57.517682" lon="12.404132"><ele>16.2</ele></trkpt><trkpt lat="57.517803" lon="12.404400"><ele>18.4</ele></trkpt><trkpt lat="57.517862" lon="12.404945"><ele>22.8</ele></trkpt><trkpt lat="57.517855" lon="12.405717"><ele>26.4</ele></trkpt><trkpt lat="57.518028" lon="12.406002"><ele>28.4</ele></trkpt><trkpt lat="57.518067" lon="12.406193"><ele>29.2</ele></trkpt><trkpt lat="57.518175" lon="12.406257"><ele>30.4</ele></trkpt><trkpt lat="57.518150" lon="12.406233"><ele>31.0</ele></trkpt><trkpt lat="57.518405" lon="12.407092"><ele>33.8</ele></trkpt><trkpt lat="57.518713" lon="12.407285"><ele>37.2</ele></trkpt><trkpt lat="57.518828" lon="12.407455"><ele>40.6</ele></trkpt><trkpt lat="57.518957" lon="12.407477"><ele>42.6</ele></trkpt><trkpt lat="57.519302" lon="12.407900"><ele>40.2</ele></trkpt><trkpt lat="57.519507" lon="12.407958"><ele>40.0</ele></trkpt><trkpt lat="57.519692" lon="12.408122"><ele>40.2</ele></trkpt><trkpt lat="57.519865" lon="12.408492"><ele>40.0</ele></trkpt><trkpt lat="57.520485" lon="12.408858"><ele>34.4</ele></trkpt><trkpt lat="57.520742" lon="12.408800"><ele>37.0</ele></trkpt><trkpt lat="57.521062" lon="12.409227"><ele>39.2</ele></trkpt><trkpt lat="57.521555" lon="12.409562"><ele>39.4</ele></trkpt><trkpt lat="57.521605" lon="12.409712"><ele>35.2</ele></trkpt><trkpt lat="57.521778" lon="12.409870"><ele>33.4</ele></trkpt><trkpt lat="57.522175" lon="12.409798"><ele>33.8</ele></trkpt><trkpt lat="57.522533" lon="12.409922"><ele>29.8</ele></trkpt><trkpt lat="57.522495" lon="12.409925"><ele>29.2</ele></trkpt><trkpt lat="57.522687" lon="12.410068"><ele>26.0</ele></trkpt><trkpt lat="57.522783" lon="12.410228"><ele>26.2</ele></trkpt><trkpt lat="57.522808" lon="12.410467"><ele>23.0</ele></trkpt><trkpt lat="57.523020" lon="12.410850"><ele>22.0</ele></trkpt><trkpt lat="57.523545" lon="12.411092"><ele>22.6</ele></trkpt><trkpt lat="57.523757" lon="12.411320"><ele>20.4</ele></trkpt><trkpt lat="57.524120" lon="12.411242"><ele>20.2</ele></trkpt><trkpt lat="57.524358" lon="12.411403"><ele>20.8</ele></trkpt><trkpt lat="57.524473" lon="12.411375"><ele>19.4</ele></trkpt><trkpt lat="57.525350" lon="12.411758"><ele>20.4</ele></trkpt><trkpt lat="57.525548" lon="12.412037"><ele>21.4</ele></trkpt><trkpt lat="57.525650" lon="12.412392"><ele>18.4</ele></trkpt><trkpt lat="57.525920" lon="12.412687"><ele>13.0</ele></trkpt><trkpt lat="57.526700" lon="12.412868"><ele>18.2</ele></trkpt><trkpt lat="57.526943" lon="12.412775"><ele>18.4</ele></trkpt><trkpt lat="57.527448" lon="12.412803"><ele>19.2</ele></trkpt><trkpt lat="57.527737" lon="12.413098"><ele>18.4</ele></trkpt><trkpt lat="57.527993" lon="12.413173"><ele>15.2</ele></trkpt><trkpt lat="57.528313" lon="12.413067"><ele>13.2</ele></trkpt><trkpt lat="57.528422" lon="12.412955"><ele>14.6</ele></trkpt><trkpt lat="57.528760" lon="12.413133"><ele>13.4</ele></trkpt><trkpt lat="57.528902" lon="12.413053"><ele>13.6</ele></trkpt><trkpt lat="57.529318" lon="12.413153"><ele>15.4</ele></trkpt><trkpt lat="57.529535" lon="12.413118"><ele>16.0</ele></trkpt><trkpt lat="57.529695" lon="12.412943"><ele>17.6</ele></trkpt><trkpt lat="57.530123" lon="12.412980"><ele>17.4</ele></trkpt><trkpt lat="57.530393" lon="12.412765"><ele>19.8</ele></trkpt><trkpt lat="57.530477" lon="12.412797"><ele>20.0</ele></trkpt><trkpt lat="57.530508" lon="12.412903"><ele>18.0</ele></trkpt><trkpt lat="57.530713" lon="12.413117"><ele>18.2</ele></trkpt><trkpt lat="57.530995" lon="12.413253"><ele>17.4</ele></trkpt><trkpt lat="57.531257" lon="12.413143"><ele>18.4</ele></trkpt><trkpt lat="57.531570" lon="12.413227"><ele>20.6</ele></trkpt><trkpt lat="57.531820" lon="12.413537"><ele>15.8</ele></trkpt><trkpt lat="57.531872" lon="12.413688"><ele>13.4</ele></trkpt><trkpt lat="57.532280" lon="12.414040"><ele>11.6</ele></trkpt><trkpt lat="57.532557" lon="12.414065"><ele>12.0</ele></trkpt><trkpt lat="57.533183" lon="12.414313"><ele>16.0</ele></trkpt><trkpt lat="57.533278" lon="12.414280"><ele>16.2</ele></trkpt><trkpt lat="57.533560" lon="12.414533"><ele>14.6</ele></trkpt><trkpt lat="57.533643" lon="12.414453"><ele>12.2</ele></trkpt><trkpt lat="57.533907" lon="12.414690"><ele>9.6</ele></trkpt><trkpt lat="57.534002" lon="12.414653"><ele>9.4</ele></trkpt><trkpt lat="57.534182" lon="12.414817"><ele>10.2</ele></trkpt><trkpt lat="57.534502" lon="12.414885"><ele>10.0</ele></trkpt><trkpt lat="57.534648" lon="12.415095"><ele>10.0</ele></trkpt><trkpt lat="57.535142" lon="12.414855"><ele>19.2</ele></trkpt><trkpt lat="57.535782" lon="12.414738"><ele>23.0</ele></trkpt><trkpt lat="57.536102" lon="12.414300"><ele>25.8</ele></trkpt><trkpt lat="57.536248" lon="12.413842"><ele>28.6</ele></trkpt><trkpt lat="57.536352" lon="12.413733"><ele>29.4</ele></trkpt><trkpt lat="57.536512" lon="12.413715"><ele>30.0</ele></trkpt><trkpt lat="57.536863" lon="12.413940"><ele>28.0</ele></trkpt><trkpt lat="57.536940" lon="12.413920"><ele>27.2</ele></trkpt><trkpt lat="57.537062" lon="12.414027"><ele>26.0</ele></trkpt><trkpt lat="57.537247" lon="12.414402"><ele>24.4</ele></trkpt><trkpt lat="57.537228" lon="12.414455"><ele>23.0</ele></trkpt><trkpt lat="57.537350" lon="12.414600"><ele>23.0</ele></trkpt><trkpt lat="57.537267" lon="12.415118"><ele>23.0</ele></trkpt><trkpt lat="57.537260" lon="12.415853"><ele>21.8</ele></trkpt><trkpt lat="57.537208" lon="12.416205"><ele>21.0</ele></trkpt><trkpt lat="57.537010" lon="12.416852"><ele>17.4</ele></trkpt><trkpt lat="57.537152" lon="12.417115"><ele>13.4</ele></trkpt><trkpt lat="57.537638" lon="12.417380"><ele>11.0</ele></trkpt><trkpt lat="57.538168" lon="12.418140"><ele>11.2</ele></trkpt><trkpt lat="57.538317" lon="12.418160"><ele>11.2</ele></trkpt><trkpt lat="57.538637" lon="12.418380"><ele>12.2</ele></trkpt><trkpt lat="57.539065" lon="12.418465"><ele>12.4</ele></trkpt><trkpt lat="57.539942" lon="12.418972"><ele>14.2</ele></trkpt><trkpt lat="57.540147" lon="12.418898"><ele>15.2</ele></trkpt><trkpt lat="57.540300" lon="12.418497"><ele>16.0</ele></trkpt><trkpt lat="57.540595" lon="12.418305"><ele>16.6</ele></trkpt><trkpt lat="57.541573" lon="12.418675"><ele>18.4</ele></trkpt><trkpt lat="57.542763" lon="12.419300"><ele>18.8</ele></trkpt><trkpt lat="57.543250" lon="12.419397"><ele>18.6</ele></trkpt><trkpt lat="57.543302" lon="12.419843"><ele>18.2</ele></trkpt><trkpt lat="57.543302" lon="12.420425"><ele>17.8</ele></trkpt><trkpt lat="57.543238" lon="12.420967"><ele>17.8</ele></trkpt><trkpt lat="57.542725" lon="12.422838"><ele>17.8</ele></trkpt><trkpt lat="57.542662" lon="12.423423"><ele>18.0</ele></trkpt><trkpt lat="57.542405" lon="12.423780"><ele>17.8</ele></trkpt><trkpt lat="57.542053" lon="12.424115"><ele>17.4</ele></trkpt><trkpt lat="57.541395" lon="12.424080"><ele>17.2</ele></trkpt><trkpt lat="57.540717" lon="12.424228"><ele>16.2</ele></trkpt><trkpt lat="57.540645" lon="12.424367"><ele>16.4</ele></trkpt><trkpt lat="57.540568" lon="12.424748"><ele>15.2</ele></trkpt><trkpt lat="57.540627" lon="12.425898"><ele>15.6</ele></trkpt><trkpt lat="57.540120" lon="12.427710"><ele>14.4</ele></trkpt><trkpt lat="57.539865" lon="12.428363"><ele>15.4</ele></trkpt><trkpt lat="57.539500" lon="12.428762"><ele>15.0</ele></trkpt><trkpt lat="57.539360" lon="12.428792"><ele>14.8</ele></trkpt><trkpt lat="57.539302" lon="12.428742"><ele>14.6</ele></trkpt><trkpt lat="57.539308" lon="12.428547"><ele>14.2</ele></trkpt><trkpt lat="57.539225" lon="12.428368"><ele>13.6</ele></trkpt><trkpt lat="57.539263" lon="12.428353"><ele>13.0</ele></trkpt><trkpt lat="57.539243" lon="12.428223"><ele>12.2</ele></trkpt><trkpt lat="57.539135" lon="12.428067"><ele>12.0</ele></trkpt><trkpt lat="57.538975" lon="12.428032"><ele>12.4</ele></trkpt><trkpt lat="57.538808" lon="12.427808"><ele>13.4</ele></trkpt><trkpt lat="57.538432" lon="12.427637"><ele>12.8</ele></trkpt><trkpt lat="57.537997" lon="12.427585"><ele>13.4</ele></trkpt><trkpt lat="57.537798" lon="12.427673"><ele>13.0</ele></trkpt><trkpt lat="57.537420" lon="12.428165"><ele>12.8</ele></trkpt><trkpt lat="57.537163" lon="12.428900"><ele>12.4</ele></trkpt><trkpt lat="57.537145" lon="12.429102"><ele>12.4</ele></trkpt><trkpt lat="57.537202" lon="12.429242"><ele>12.8</ele></trkpt><trkpt lat="57.537132" lon="12.429607"><ele>12.6</ele></trkpt><trkpt lat="57.537170" lon="12.429605"><ele>12.6</ele></trkpt><trkpt lat="57.537093" lon="12.429710"><ele>12.8</ele></trkpt><trkpt lat="57.537030" lon="12.430007"><ele>12.6</ele></trkpt><trkpt lat="57.536767" lon="12.430200"><ele>12.6</ele></trkpt><trkpt lat="57.536627" lon="12.430158"><ele>13.0</ele></trkpt><trkpt lat="57.536473" lon="12.429967"><ele>12.8</ele></trkpt><trkpt lat="57.536428" lon="12.429703"><ele>12.8</ele></trkpt><trkpt lat="57.536518" lon="12.429232"><ele>13.0</ele></trkpt><trkpt lat="57.536492" lon="12.428957"><ele>12.8</ele></trkpt><trkpt lat="57.536722" lon="12.428205"><ele>12.8</ele></trkpt><trkpt lat="57.536825" lon="12.427688"><ele>12.4</ele></trkpt><trkpt lat="57.536940" lon="12.427555"><ele>12.6</ele></trkpt><trkpt lat="57.537158" lon="12.427615"><ele>13.0</ele></trkpt></trkseg></trk></gpx>